{"type":"FeatureCollection","source":{"title":"Natural Earth v5.0.0 1:10m ne_10m_lakes","license":"Public domain","terms":"https://www.naturalearthdata.com/about/terms-of-use/","upstreamCommit":"ace5fed0eaf3c6c03c951e75b439ba8fffbc218e","sourceFiles":[{"file":"ne_10m_lakes.geojson","sha256":"2d036f53dedec578001c5c30c2959ee7d4eebc1306900fa4367c49929ec8f2d9","url":"https://github.com/nvkelso/natural-earth-vector/blob/ace5fed0eaf3c6c03c951e75b439ba8fffbc218e/geojson/ne_10m_lakes.geojson"}],"geometryPolicy":"Original features, properties and coordinates preserved; cropped only during rasterization","limitations":"Generalized cartography, not a complete drainage or lake inventory. Gameplay widths are exaggerated; fixed nominal lake levels are not current levels or datum conversions.","geographicBoundsWsen":[67.49969754548624,-45.088823471434,157.49969754548624,36.59813031529008],"surfaceReferenceLevels":{"Danau Toba":{"surfaceElevationMeters":905,"url":"https://wldb.ilec.or.jp/Display/html/3527"}},"selectionNotes":"Selected significant permanent lakes with independently referenced nonnegative nominal levels. Below-sea basins and seasonal playas are excluded: shared renderer cannot represent negative lake surfaces."},"features":[{"type":"Feature","properties":{"featurecla":"Lake","scalerank":5,"name":"Danau Toba","name_abb":"Danau Toba","name_alt":"Lake Toba","note":null,"delta":null,"dam_name":null,"year":-99,"admin":null,"min_zoom":4.7,"min_label":6,"label":"Danau Toba","wikidataid":"Q183360","name_ar":"بحيرة توبا","name_bn":"টোবা হ্রদ","name_de":"Tobasee","name_en":"Toba","name_es":"Toba","name_fr":"Toba","name_el":"Λίμνη Τόμπα","name_hi":"तोबा झील","name_hu":"Toba-tó","name_id":"Toba","name_it":"Toba","name_ja":"トバ湖","name_ko":"토바호","name_nl":"Tobameer","name_pl":"Toba","name_pt":"Toba","name_ru":"Тоба","name_sv":"Tobasjön","name_tr":"Toba","name_vi":"Siêu núi lửa Toba","name_zh":"多巴湖","ne_id":1159114361,"name_fa":"دریاچه توبا","name_he":"אגם טובה","name_uk":"Тоба","name_ur":"ڈانو ٹوبا","name_zht":"多巴湖"},"bbox":[98.514111,2.336482,99.152586,2.88812],"geometry":{"type":"Polygon","coordinates":[[[99.12521,2.425969],[99.143755,2.420964],[99.152586,2.408012],[99.144638,2.387701],[99.14405,2.387112],[99.141989,2.38152],[99.137574,2.377398],[99.130509,2.37416],[99.117557,2.387701],[99.109315,2.375927],[99.094597,2.362386],[99.07664,2.350906],[99.058979,2.346196],[99.025715,2.35797],[99.020711,2.356793],[99.016296,2.353555],[98.994807,2.342664],[98.986565,2.340014],[98.975673,2.33972],[98.967431,2.341192],[98.932108,2.352083],[98.924748,2.353261],[98.915918,2.353555],[98.90532,2.352378],[98.885598,2.347373],[98.874412,2.346196],[98.871469,2.347373],[98.869702,2.349728],[98.866759,2.352378],[98.860577,2.353555],[98.853807,2.351494],[98.848508,2.342075],[98.842915,2.340014],[98.831435,2.338248],[98.82702,2.336482],[98.825548,2.33972],[98.822604,2.353555],[98.82437,2.360914],[98.828197,2.372394],[98.829963,2.382991],[98.826137,2.387701],[98.81083,2.39506],[98.801999,2.412722],[98.796111,2.433033],[98.788458,2.449223],[98.730174,2.510451],[98.725464,2.513983],[98.714867,2.528407],[98.709863,2.531645],[98.709274,2.535472],[98.697205,2.543714],[98.68337,2.550779],[98.67866,2.551662],[98.671595,2.56638],[98.670418,2.584925],[98.676011,2.600821],[98.689257,2.607297],[98.703092,2.597877],[98.726347,2.550485],[98.740771,2.531645],[98.804648,2.492495],[98.859105,2.440981],[98.87765,2.430973],[98.89855,2.428618],[98.912385,2.433916],[98.946237,2.451873],[98.963016,2.455994],[98.97744,2.463353],[98.978617,2.480132],[98.972435,2.498676],[98.965959,2.510451],[98.901788,2.584042],[98.867642,2.646153],[98.844976,2.677356],[98.795523,2.730341],[98.766381,2.748297],[98.732529,2.754773],[98.701032,2.743587],[98.67866,2.709736],[98.67395,2.638794],[98.676011,2.627314],[98.661587,2.63114],[98.643925,2.64056],[98.627735,2.65204],[98.617727,2.662049],[98.610368,2.696195],[98.598299,2.721804],[98.596827,2.727103],[98.591528,2.735934],[98.568568,2.745354],[98.563269,2.754479],[98.560914,2.76331],[98.555322,2.769491],[98.541486,2.778617],[98.524708,2.800694],[98.51676,2.824832],[98.514111,2.88812],[98.522647,2.88341],[98.529712,2.883999],[98.535893,2.886354],[98.541486,2.88812],[98.583875,2.886943],[98.598887,2.882233],[98.606835,2.881055],[98.651284,2.881055],[98.690435,2.87193],[98.726347,2.854268],[98.782865,2.812174],[98.819072,2.765665],[98.844976,2.753301],[98.89855,2.7168],[98.911208,2.700316],[98.919744,2.682065],[98.924748,2.662932],[98.92622,2.644975],[98.91945,2.63114],[98.917389,2.620838],[98.922688,2.610829],[98.953007,2.571973],[99.024538,2.507507],[99.036018,2.49014],[99.040728,2.466885],[99.041611,2.418904],[99.04897,2.396827],[99.065749,2.398593],[99.103722,2.422436],[99.12521,2.425969]]]}}]}
