{"type":"FeatureCollection","source":{"title":"Natural Earth v5.0.0 1:10m ne_10m_lakes","license":"Public domain","terms":"https://www.naturalearthdata.com/about/terms-of-use/","upstreamCommit":"ace5fed0eaf3c6c03c951e75b439ba8fffbc218e","sourceFiles":[{"file":"ne_10m_lakes.geojson","sha256":"2d036f53dedec578001c5c30c2959ee7d4eebc1306900fa4367c49929ec8f2d9","url":"https://github.com/nvkelso/natural-earth-vector/blob/ace5fed0eaf3c6c03c951e75b439ba8fffbc218e/geojson/ne_10m_lakes.geojson"}],"geometryPolicy":"Original features, properties and coordinates preserved; cropped only during rasterization","limitations":"Generalized cartography, not a complete drainage or lake inventory. Gameplay widths are exaggerated; fixed nominal lake levels are not current levels or datum conversions.","geographicBoundsWsen":[25.92766489220628,9.622657437998393,70.92766489220628,47.87230949678242],"surfaceReferenceLevels":{"Lake Van":{"surfaceElevationMeters":1649,"url":"https://agupubs.onlinelibrary.wiley.com/doi/full/10.1029/2009WR008555"}},"selectionNotes":"Selected significant permanent lakes with independently referenced nonnegative nominal levels. Below-sea basins and seasonal playas are excluded: shared renderer cannot represent negative lake surfaces."},"features":[{"type":"Feature","properties":{"featurecla":"Alkaline Lake","scalerank":4,"name":"Lake Van","name_abb":"L. Van","name_alt":null,"note":null,"delta":null,"dam_name":null,"year":-99,"admin":null,"min_zoom":4,"min_label":5,"label":"Lake Van","wikidataid":"Q126307","name_ar":"بحيرة وان","name_bn":"লেক ভ্যান","name_de":"Vansee","name_en":"Van","name_es":"Van","name_fr":"Van","name_el":"Βαν","name_hi":"वान झील","name_hu":"Van-tó","name_id":"Van","name_it":"Van","name_ja":"ヴァン湖","name_ko":"반호","name_nl":"Vanmeer","name_pl":"Wan","name_pt":"Van","name_ru":"Ван","name_sv":"Vansjön","name_tr":"Van","name_vi":"Van","name_zh":"凡湖","ne_id":1159126829,"name_fa":"دریاچه وان","name_he":"ימת ואן","name_uk":"Ван","name_ur":"جھیل وان","name_zht":"凡湖"},"bbox":[42.299688,38.314254,43.659061,39.001594],"geometry":{"type":"Polygon","coordinates":[[[43.131266,38.316903],[43.104185,38.314254],[43.019113,38.316609],[43.000863,38.326912],[42.994387,38.335448],[42.97908,38.336626],[42.960535,38.335448],[42.945522,38.336626],[42.93522,38.343985],[42.936986,38.351638],[42.945228,38.360764],[42.953176,38.371655],[42.953176,38.377542],[42.943168,38.385196],[42.936103,38.392849],[42.928449,38.396382],[42.918441,38.391966],[42.91432,38.398442],[42.911376,38.40168],[42.906961,38.403741],[42.897835,38.405801],[42.9049,38.432883],[42.911671,38.432883],[42.914614,38.428762],[42.920796,38.423463],[42.925211,38.418753],[42.924328,38.427879],[42.926977,38.430528],[42.932276,38.431117],[42.939046,38.432883],[42.928449,38.447601],[42.925211,38.453488],[42.910787,38.446718],[42.897835,38.447601],[42.884883,38.451134],[42.870165,38.453488],[42.877524,38.460848],[42.871048,38.467618],[42.872226,38.471739],[42.879291,38.473505],[42.891065,38.474094],[42.884589,38.476743],[42.878996,38.480864],[42.873992,38.486752],[42.870165,38.494405],[42.879879,38.500587],[42.876347,38.505885],[42.868399,38.504708],[42.856624,38.4738],[42.839257,38.469678],[42.818946,38.474094],[42.801873,38.481453],[42.798046,38.456432],[42.791276,38.446718],[42.773908,38.440242],[42.764488,38.444069],[42.691781,38.43877],[42.687071,38.442303],[42.663227,38.472328],[42.651747,38.478804],[42.598761,38.485574],[42.583749,38.493522],[42.575801,38.507946],[42.567265,38.502647],[42.550191,38.497643],[42.541655,38.494405],[42.536651,38.489695],[42.533118,38.484102],[42.528703,38.478215],[42.520755,38.474094],[42.501327,38.47115],[42.486314,38.475271],[42.474834,38.484102],[42.466003,38.494405],[42.468653,38.494994],[42.470124,38.501175],[42.46983,38.508829],[42.466003,38.515011],[42.457172,38.516777],[42.448636,38.514127],[42.438627,38.507946],[42.40978,38.496171],[42.39565,38.495877],[42.38417,38.507946],[42.369746,38.497643],[42.349729,38.490873],[42.327946,38.48734],[42.308224,38.487635],[42.299688,38.507651],[42.309696,38.517954],[42.349729,38.528551],[42.361798,38.537971],[42.37946,38.566524],[42.39094,38.577121],[42.409485,38.578888],[42.420082,38.581242],[42.425087,38.586835],[42.42126,38.591545],[42.413606,38.59861],[42.408014,38.607441],[42.410663,38.618038],[42.423909,38.622748],[42.493968,38.624808],[42.488669,38.630401],[42.482193,38.633934],[42.476012,38.636289],[42.472774,38.638349],[42.466003,38.658955],[42.457172,38.67014],[42.44422,38.692218],[42.435389,38.703698],[42.438333,38.720771],[42.467769,38.736667],[42.600822,38.778466],[42.620544,38.781704],[42.647626,38.782882],[42.709148,38.793185],[42.733286,38.803487],[42.747415,38.799661],[42.801873,38.792596],[42.809821,38.785531],[42.828366,38.784648],[42.89813,38.795834],[42.91638,38.796717],[42.928744,38.792596],[42.941696,38.785237],[42.956414,38.784354],[43.09241,38.804076],[43.123907,38.816439],[43.162174,38.841166],[43.175715,38.844404],[43.183663,38.850586],[43.195143,38.880611],[43.206918,38.891797],[43.193966,38.897684],[43.177776,38.900333],[43.145101,38.899156],[43.145396,38.900628],[43.144513,38.903571],[43.142158,38.905926],[43.137448,38.905926],[43.133327,38.902688],[43.131266,38.893563],[43.123907,38.889736],[43.110072,38.877962],[43.143924,38.880316],[43.147751,38.865304],[43.1295,38.851763],[43.09712,38.858239],[43.088289,38.866776],[43.079164,38.879728],[43.072099,38.892974],[43.069155,38.902688],[43.065917,38.925648],[43.072099,38.930947],[43.110661,38.933891],[43.120963,38.937423],[43.130677,38.942133],[43.145101,38.946843],[43.16188,38.94802],[43.203385,38.940072],[43.219575,38.942722],[43.231644,38.948903],[43.242241,38.955674],[43.25431,38.960383],[43.271089,38.962444],[43.287574,38.960972],[43.315538,38.954202],[43.313478,38.960972],[43.310828,38.974513],[43.308768,38.980989],[43.315538,38.980989],[43.319659,38.972747],[43.327313,38.968331],[43.337615,38.966565],[43.350567,38.967448],[43.351156,38.977751],[43.353511,38.984816],[43.359987,38.987759],[43.373528,38.987171],[43.37706,38.987759],[43.383831,38.991292],[43.388246,38.995707],[43.392956,38.999828],[43.401492,39.001594],[43.40473,39.000417],[43.407674,38.998356],[43.41209,38.996002],[43.477733,38.993058],[43.542199,38.980989],[43.578994,38.982461],[43.59018,38.980989],[43.596656,38.977457],[43.61314,38.965093],[43.62462,38.960383],[43.632274,38.963916],[43.641399,38.959795],[43.659061,38.946843],[43.65494,38.945665],[43.651408,38.945077],[43.64817,38.943899],[43.644637,38.940072],[43.659061,38.932713],[43.640516,38.930947],[43.59695,38.919761],[43.547497,38.917995],[43.534839,38.913285],[43.531307,38.908281],[43.521299,38.885321],[43.501282,38.871191],[43.484503,38.868247],[43.469785,38.868836],[43.457127,38.86707],[43.44653,38.858239],[43.428868,38.858828],[43.412678,38.850291],[43.399432,38.837045],[43.390012,38.822621],[43.384419,38.822621],[43.369701,38.840872],[43.339087,38.845876],[43.308768,38.835573],[43.295227,38.806725],[43.296699,38.787297],[43.291989,38.779055],[43.27786,38.775523],[43.261375,38.774051],[43.244596,38.76993],[43.229878,38.763454],[43.219575,38.754917],[43.216337,38.750502],[43.214277,38.745792],[43.213688,38.739905],[43.213099,38.731074],[43.211039,38.720771],[43.205446,38.715767],[43.19897,38.712235],[43.192788,38.70723],[43.176304,38.685742],[43.16865,38.671612],[43.165412,38.655717],[43.155993,38.637466],[43.133032,38.624808],[43.08299,38.611856],[43.08299,38.604203],[43.089761,38.604203],[43.100652,38.613328],[43.123907,38.61951],[43.175715,38.624808],[43.190728,38.620687],[43.200147,38.611268],[43.216632,38.586835],[43.226935,38.580654],[43.242536,38.575061],[43.258726,38.57094],[43.271089,38.569468],[43.316127,38.542386],[43.325252,38.486457],[43.306413,38.439653],[43.267262,38.440242],[43.22664,38.418165],[43.219575,38.415515],[43.213099,38.408156],[43.184252,38.389023],[43.175715,38.385196],[43.162469,38.382841],[43.153344,38.376071],[43.147456,38.365474],[43.145101,38.35105],[43.148045,38.335154],[43.153049,38.326617],[43.150694,38.322202],[43.131266,38.316903]]]}}]}
