{"type":"FeatureCollection","source":{"title":"Natural Earth v5.0.0 1:10m lakes and European supplement","license":"Public domain","terms":"https://www.naturalearthdata.com/about/terms-of-use/","upstreamCommit":"ace5fed0eaf3c6c03c951e75b439ba8fffbc218e","geographicBoundsWsen":[7.954123531324512,34.08925290722928,19.204123531324512,42.87613363764532],"geometryPolicy":"Original features, properties and coordinates preserved; no invented connections; clipped only while rasterizing the original Web Mercator capture","sourceFiles":[{"file":"ne_10m_lakes.geojson","url":"https://github.com/nvkelso/natural-earth-vector/blob/ace5fed0eaf3c6c03c951e75b439ba8fffbc218e/geojson/ne_10m_lakes.geojson","sha256":"2d036f53dedec578001c5c30c2959ee7d4eebc1306900fa4367c49929ec8f2d9"},{"file":"ne_10m_lakes_europe.geojson","url":"https://github.com/nvkelso/natural-earth-vector/blob/ace5fed0eaf3c6c03c951e75b439ba8fffbc218e/geojson/ne_10m_lakes_europe.geojson","sha256":"b4dd9e7a5edd0d07b54768b5404d1ebe77f80b9d579c85fff65f90cf50369769"}],"limitations":"Cartographic generalized 1:10 million geometry, not a complete or survey-accurate drainage inventory; polygon shorelines, islands and river widths are additionally limited by output cell size.","surfaceReferenceLevels":{"Lago di Bolsena":{"surfaceElevationMeters":305,"url":"https://www.regione.lazio.it/sites/default/files/2021-10/DCR-18-23112018.pdf","title":"Regione Lazio, DCR 18/2018, section 4.1.2 Lago di Bolsena (printed page 144)","convention":"Published nominal altitude in metres above sea level; precise vertical datum unspecified"},"Lago di Bracciano":{"surfaceElevationMeters":164,"url":"https://www.comune.bracciano.rm.it/il-lago-di-bracciano/il-lago-di-bracciano/","title":"Comune di Bracciano, Il Lago di Bracciano, quoting Regione Lazio lake guide","convention":"Published nominal altitude in metres above sea level; precise vertical datum unspecified","sourceAttributeDiscrepancy":"Europe supplement altitude attribute is 161 m; retain source property but explicitly use municipal published 164 m nominal level"},"Lake Skadar":{"surfaceElevationMeters":6,"url":"https://www.fao.org/4/t0798e/T0798E01.htm","title":"FAO Inland fisheries of Europe, Albania, section 5.2 Skadar or Scutari Lake","convention":"Published nominal lake elevation, metres above sea level; precise vertical datum unspecified"}},"verticalDatumLimitations":"Fixed nominal, non-current lake surfaces; sources do not state a precise common vertical datum and no datum conversion to the original DEM is asserted.","selectionNotes":"Use correctly located and named Europe supplement Bolsena and Bracciano. Exclude global feature 1159118119 labeled Lago di Bracciano because it is a duplicate Bolsena polygon; include only cropped northwest portion of Skadar. Other unnamed candidates require separate validation."},"features":[{"type":"Feature","properties":{"featurecla":"Lake","scalerank":6,"name":"Lake Skadar","name_abb":"L. Skadar","name_alt":"Lake Scutari","note":null,"delta":null,"dam_name":null,"year":-99,"admin":"admin-0","min_zoom":5,"min_label":6.5,"label":"Lake Skadar","wikidataid":"Q203811","name_ar":"بحيرة سكيوتاري","name_bn":"লেক স্কাদার","name_de":"Skutarisee","name_en":"Skadar","name_es":"Skadar","name_fr":"Skadar","name_el":"Λίμνη Σκόδρας","name_hi":"स्काडार झील","name_hu":"Shkodrai-tó","name_id":"Skadar","name_it":"Scutari","name_ja":"シュコダル湖","name_ko":"슈코더르호","name_nl":"Meer van Shkodër","name_pl":"Jezioro Szkoderskie","name_pt":"Escútare","name_ru":"Шкодер","name_sv":"Shkodrasjön","name_tr":"İşkodra","name_vi":"Hồ Skadar","name_zh":"斯库台湖","ne_id":1159115429,"name_fa":"دریاچه اشکودرا","name_he":"אגם שקודרה","name_uk":"Скадарське озеро","name_ur":"جھیل اسکادار","name_zht":"斯庫台湖"},"bbox":[19.07789,42.065336,19.482347,42.338801],"geometry":{"type":"Polygon","coordinates":[[[19.48058,42.113023],[19.474987,42.072107],[19.482347,42.065336],[19.423768,42.071812],[19.37196,42.088002],[19.247738,42.143931],[19.225367,42.158355],[19.208294,42.176606],[19.191809,42.22341],[19.167671,42.234007],[19.105855,42.235773],[19.119396,42.243427],[19.108799,42.254907],[19.106738,42.264915],[19.107915,42.274629],[19.105855,42.284343],[19.094669,42.294057],[19.082306,42.300533],[19.07789,42.305832],[19.091431,42.310836],[19.104089,42.29759],[19.145888,42.270802],[19.155014,42.276984],[19.165905,42.277573],[19.175325,42.272863],[19.180918,42.263738],[19.201523,42.271391],[19.227427,42.270508],[19.320741,42.254318],[19.337225,42.255201],[19.344879,42.270802],[19.340169,42.268448],[19.324862,42.263738],[19.317503,42.284343],[19.348117,42.278456],[19.36519,42.280222],[19.379614,42.310247],[19.396687,42.324377],[19.417292,42.334974],[19.43466,42.338801],[19.410522,42.304654],[19.378436,42.268153],[19.365778,42.231063],[19.399336,42.194856],[19.41111,42.190147],[19.426417,42.187203],[19.43466,42.181316],[19.440547,42.171896],[19.443196,42.163065],[19.449083,42.156589],[19.464979,42.15394],[19.47852,42.141282],[19.48058,42.113023]]]}},{"type":"Feature","properties":{"id":138374,"name":"Lago di Bolsena","lge_id":"it","pfafstette":55,"lke_type":"N","altitude":305,"objectid":85790,"scalerank":10,"featurecla":"Lake","note":null,"funkyname":0,"min_zoom":6,"min_label":7,"label":"Lago di Bolsena","wikidataid":"Q208180","name_ar":"بحيرة بولزينا","name_bn":null,"name_de":"Bolsenasee","name_en":"Bolsena","name_es":"Bolsena","name_fr":"Bolsena","name_el":"Λίμνη Μπολσένα","name_hi":null,"name_hu":null,"name_id":"Bolsena","name_it":"Bolsena","name_ja":"ボルセーナ湖","name_ko":"볼세나호","name_nl":"Meer van Bolsena","name_pl":"Bolsena","name_pt":"Bolsena","name_ru":"Больсена","name_sv":"Bolsenasjön","name_tr":null,"name_vi":null,"name_zh":"博尔塞纳湖","ne_id":1159109633,"name_he":"אגם בולסנה","name_uk":"Больсена","name_ur":null,"name_fa":"دریاچه بولسنا","name_zht":"博爾塞納湖"},"bbox":[11.862804,42.542914,11.995372,42.659613],"geometry":{"type":"Polygon","coordinates":[[[11.948863,42.542914],[11.919078,42.546515],[11.910899,42.554084],[11.898936,42.561713],[11.887706,42.570807],[11.87318,42.585089],[11.862804,42.608527],[11.879649,42.638007],[11.911143,42.656867],[11.950694,42.659613],[11.982677,42.648932],[11.992442,42.633185],[11.994151,42.611274],[11.995372,42.591193],[11.995128,42.570197],[11.984141,42.548346],[11.948863,42.542914],[11.948863,42.542914]]]}},{"type":"Feature","properties":{"id":138620,"name":"Lago di Bracciano","lge_id":null,"pfafstette":553,"lke_type":"N","altitude":161,"objectid":86427,"scalerank":10,"featurecla":"Lake","note":null,"funkyname":0,"min_zoom":6,"min_label":7,"label":"Lago di Bracciano","wikidataid":"Q896551","name_ar":null,"name_bn":null,"name_de":"Braccianosee","name_en":"Bracciano","name_es":"Bracciano","name_fr":"Bracciano","name_el":"Λα Μαρμότα","name_hi":null,"name_hu":null,"name_id":null,"name_it":"Bracciano","name_ja":"ブラッチャーノ湖","name_ko":null,"name_nl":"Meer van Bracciano","name_pl":"Bracciano","name_pt":"Bracciano","name_ru":"Браччано","name_sv":"Braccianosjön","name_tr":"Bracciano","name_vi":null,"name_zh":"布拉恰诺湖","ne_id":1159109787,"name_he":"אגם ברקיאנו","name_uk":null,"name_ur":null,"name_fa":null,"name_zht":"布拉恰诺湖"},"bbox":[12.176036,42.091803,12.283214,42.166571],"geometry":{"type":"Polygon","coordinates":[[[12.22755,42.091803],[12.204478,42.099982],[12.18568,42.113715],[12.176036,42.130439],[12.18568,42.149298],[12.208995,42.163825],[12.236339,42.166266],[12.25587,42.166571],[12.264171,42.161383],[12.276256,42.150519],[12.283214,42.12464],[12.265636,42.100653],[12.24586,42.094001],[12.22755,42.091803],[12.22755,42.091803]]]}}]}
