{"type":"FeatureCollection","source":{"title":"Natural Earth v5.0.0 1:10m rivers and European supplement","license":"Public domain","terms":"https://www.naturalearthdata.com/about/terms-of-use/","upstreamCommit":"ace5fed0eaf3c6c03c951e75b439ba8fffbc218e","geographicBoundsWsen":[7.954123531324512,34.08925290722928,19.204123531324512,42.87613363764532],"geometryPolicy":"Original features, properties and coordinates preserved; no invented connections; clipped only while rasterizing the original Web Mercator capture","sourceFiles":[{"file":"ne_10m_rivers_lake_centerlines.geojson","url":"https://github.com/nvkelso/natural-earth-vector/blob/ace5fed0eaf3c6c03c951e75b439ba8fffbc218e/geojson/ne_10m_rivers_lake_centerlines.geojson","sha256":"bb854a900ecbd3b408df46d5e16e3e0f974ba55993f9d8b5c26e855273c0905a"},{"file":"ne_10m_rivers_europe.geojson","url":"https://github.com/nvkelso/natural-earth-vector/blob/ace5fed0eaf3c6c03c951e75b439ba8fffbc218e/geojson/ne_10m_rivers_europe.geojson","sha256":"90712202ac46985812e90840df9acd5101599a9c649868d5bc55ee96c2fedd4c"}],"limitations":"Cartographic generalized 1:10 million geometry, not a complete or survey-accurate drainage inventory; polygon shorelines, islands and river widths are additionally limited by output cell size.","selectionNotes":"Seven River features that actually intersect the footprint: Ofanto, Tevere, Simeto, Moraca, Salto/Velino/Nera, Volturno, Sacco/Liri/Garigliano. Drina bbox intersects but its line does not. Moraca lake-centerline excluded; lake polygon supplies the lake surface."},"features":[{"type":"Feature","properties":{"dissolve":"1065River","scalerank":9.0,"featurecla":"River","name":"Ofanto","name_alt":null,"rivernum":1065,"note":null,"min_zoom":7.1,"name_en":"Ofanto","min_label":8.1},"bbox":[15.128673,40.897976,16.200613,41.362494],"geometry":{"type":"MultiLineString","coordinates":[[[15.128673,40.898057],[15.144216,40.900458],[15.19337,40.899482],[15.204763,40.902289],[15.226329,40.910956],[15.237315,40.913845],[15.247325,40.91413],[15.341238,40.897976],[15.470714,40.901679],[15.489187,40.907294],[15.523692,40.924099],[15.536388,40.933173],[15.543956,40.943793],[15.554942,40.971544],[15.572032,40.997382],[15.57781,41.010932],[15.576101,41.026435],[15.55836,41.054999],[15.554617,41.069037],[15.561453,41.086005],[15.571056,41.096381],[15.583018,41.104438],[15.596202,41.109198],[15.75294,41.102607],[15.771007,41.104438],[15.849294,41.131415],[15.923513,41.173163],[15.948253,41.181708],[16.100841,41.295193],[16.128103,41.309882],[16.179942,41.322943],[16.200613,41.336615],[16.199718,41.362494]]]}},{"type":"Feature","properties":{"dissolve":"443River","scalerank":7.0,"featurecla":"River","name":"Tevere","name_alt":"Tiber","rivernum":443,"note":null,"min_zoom":6.0,"name_en":"Tiber","min_label":7.0},"bbox":[12.031423,41.742499,12.63795,43.765163],"geometry":{"type":"MultiLineString","coordinates":[[[12.052013,43.765163],[12.037852,43.7567],[12.031423,43.738552],[12.033214,43.716864],[12.04005,43.702257],[12.060557,43.647284],[12.066417,43.613837],[12.046641,43.593329],[12.046641,43.586534],[12.082042,43.579942],[12.112315,43.56977],[12.138927,43.554226],[12.163341,43.531317],[12.167491,43.522325],[12.168956,43.513495],[12.171886,43.5067],[12.186941,43.502021],[12.211192,43.489691],[12.222097,43.478583],[12.232921,43.463813],[12.240001,43.44831],[12.239024,43.435085],[12.232188,43.442491],[12.246349,43.380927],[12.252696,43.366807],[12.261404,43.361925],[12.298595,43.348497],[12.31422,43.346381],[12.309825,43.324815],[12.323985,43.310899],[12.362559,43.291693],[12.409434,43.214952],[12.425304,43.197089],[12.438487,43.174099],[12.458018,43.164008],[12.45574,43.153266],[12.444591,43.137478],[12.444591,43.11697],[12.447683,43.113145],[12.461843,43.106635],[12.465017,43.102973],[12.45989,43.094184],[12.434255,43.070909],[12.424001,43.058946],[12.429373,43.051866],[12.429373,43.044053],[12.424978,43.036729],[12.417166,43.031033],[12.421072,43.028754],[12.423757,43.026801],[12.426524,43.025255],[12.430919,43.024197],[12.417003,43.009548],[12.413503,43.001247],[12.417166,42.990058],[12.408865,42.988227],[12.404226,42.985419],[12.396739,42.976386],[12.399425,42.97252],[12.403575,42.96955],[12.399425,42.964179],[12.394054,42.95421],[12.389903,42.949083],[12.395518,42.940375],[12.39503,42.930487],[12.390391,42.92121],[12.383067,42.914333],[12.383067,42.908149],[12.390391,42.895941],[12.386729,42.88463],[12.37794,42.874823],[12.368826,42.867133],[12.390066,42.856716],[12.39796,42.849799],[12.403575,42.839219],[12.387136,42.833767],[12.378591,42.832302],[12.368826,42.832384],[12.368826,42.826199],[12.376882,42.817694],[12.388194,42.812201],[12.398611,42.804958],[12.403575,42.790839],[12.388357,42.788845],[12.370291,42.781195],[12.321707,42.748603],[12.30836,42.743476],[12.273204,42.736192],[12.232188,42.702012],[12.197439,42.702012],[12.202566,42.683946],[12.210378,42.666287],[12.221365,42.652777],[12.235606,42.647406],[12.240489,42.638983],[12.245128,42.619696],[12.247325,42.5987],[12.245291,42.585395],[12.258962,42.565497],[12.262218,42.564154],[12.2671,42.565538],[12.271414,42.565985],[12.273204,42.561794],[12.272472,42.548204],[12.275401,42.535915],[12.277273,42.518866],[12.28004,42.510281],[12.283621,42.50613],[12.295095,42.496853],[12.300466,42.489814],[12.318858,42.49787],[12.342703,42.491767],[12.393321,42.462348],[12.417166,42.441352],[12.417735,42.438992],[12.416515,42.430609],[12.417166,42.42829],[12.420177,42.428005],[12.428152,42.429023],[12.430919,42.42829],[12.435476,42.425849],[12.446707,42.423407],[12.451427,42.420844],[12.451427,42.414659],[12.445242,42.410997],[12.440603,42.406602],[12.430919,42.39293],[12.438487,42.388943],[12.446707,42.387763],[12.455496,42.389228],[12.465017,42.39293],[12.465017,42.386746],[12.45338,42.372138],[12.4546,42.352851],[12.466238,42.335232],[12.486095,42.325263],[12.472423,42.318427],[12.490977,42.298285],[12.546886,42.293524],[12.560557,42.270616],[12.569509,42.278266],[12.572276,42.282579],[12.574229,42.291124],[12.581716,42.291124],[12.581065,42.278917],[12.584646,42.272244],[12.591726,42.271552],[12.602224,42.277533],[12.611746,42.265163],[12.622325,42.25434],[12.629812,42.2414],[12.629405,42.222235],[12.611095,42.237738],[12.605724,42.226142],[12.607921,42.205837],[12.612071,42.194932],[12.60613,42.191759],[12.612966,42.18476],[12.629405,42.174506],[12.635265,42.163357],[12.637869,42.156317],[12.63795,42.149726],[12.636241,42.139716],[12.629405,42.120673],[12.618826,42.109809],[12.581554,42.081366],[12.573253,42.079779],[12.566335,42.080146],[12.560557,42.078884],[12.542979,42.069037],[12.542003,42.06391],[12.553722,42.057807],[12.553722,42.051581],[12.530691,42.050157],[12.515391,42.038642],[12.509207,42.021552],[12.512706,42.003201],[12.505138,41.997423],[12.499685,41.989936],[12.492931,41.975206],[12.494314,41.95893],[12.492198,41.9442],[12.4817,41.93476],[12.458181,41.934272],[12.458181,41.928046],[12.466726,41.924506],[12.471202,41.918402],[12.470958,41.910346],[12.465017,41.900743],[12.474864,41.891547],[12.473806,41.879828],[12.468272,41.865546],[12.465017,41.848944],[12.459483,41.836127],[12.446056,41.833604],[12.430349,41.834418],[12.417166,41.831855],[12.415294,41.826728],[12.41627,41.818915],[12.415945,41.810818],[12.41033,41.804511],[12.403819,41.803168],[12.363455,41.806505],[12.350515,41.80919],[12.339366,41.807725],[12.328543,41.797065],[12.311697,41.804307],[12.297374,41.799018],[12.273204,41.777208],[12.279307,41.761339],[12.267833,41.752224],[12.232188,41.742499]]]}},{"type":"Feature","properties":{"id":7245,"wso_id":129795,"objectid":1459,"featurecla":"River","scalerank":10,"rivernum":402459,"dissolve":"402459River","name":"Simeto","min_zoom":6,"strokeweig":0.2,"name_alt":null,"min_label":7,"label":"Simeto","wikidataid":"Q1235338","name_ar":"نهر سيميتو","name_bn":null,"name_de":"Simeto","name_en":"Simeto","name_es":"Simeto","name_fr":"Simeto","name_el":null,"name_hi":null,"name_hu":null,"name_id":null,"name_it":"Simeto","name_ja":"シメート川","name_ko":null,"name_nl":"Simeto","name_pl":"Simeto","name_pt":"Simeto","name_ru":"Симето","name_sv":null,"name_tr":null,"name_vi":null,"name_zh":"錫梅托河","ne_id":1159109263,"name_fa":null,"name_he":"סימטו","name_uk":null,"name_ur":null,"name_zht":"錫梅托河"},"bbox":[14.28419,37.413886,15.090668,37.835028],"geometry":{"type":"LineString","coordinates":[[14.28533,37.835028],[14.28419,37.820217],[14.290863,37.807807],[14.332367,37.786566],[14.377778,37.745347],[14.442556,37.725246],[14.511567,37.688218],[14.552989,37.676011],[14.587657,37.674302],[14.63266,37.686265],[14.680186,37.682359],[14.729259,37.67178],[14.777029,37.652574],[14.799571,37.646877],[14.817882,37.638007],[14.835623,37.596584],[14.877452,37.533881],[14.8838,37.508531],[14.885102,37.489651],[14.893809,37.474066],[14.907481,37.464545],[14.941173,37.454006],[15.009939,37.424262],[15.049083,37.415758],[15.090668,37.413886]]}},{"type":"Feature","properties":{"id":6475,"wso_id":129534,"objectid":1854,"featurecla":"River","scalerank":10,"rivernum":402854,"dissolve":"402854River","name":"Morača","min_zoom":6,"strokeweig":0.2,"name_alt":"Bojana","min_label":7,"label":"Morača","wikidataid":"Q157736","name_ar":null,"name_bn":null,"name_de":"Morača","name_en":"Morača","name_es":"Morača","name_fr":"Morača","name_el":"Μοράτσα","name_hi":null,"name_hu":"Morača","name_id":null,"name_it":"Morača","name_ja":null,"name_ko":null,"name_nl":"Morača","name_pl":"Morača","name_pt":"Moraca","name_ru":"Морача","name_sv":"Morača","name_tr":null,"name_vi":null,"name_zh":"莫拉查河","ne_id":1159109741,"name_fa":null,"name_he":null,"name_uk":"Морача","name_ur":null,"name_zht":"莫拉查河"},"bbox":[18.917979,42.289496,19.259288,42.896959],"geometry":{"type":"LineString","coordinates":[[19.12086,42.864651],[19.081716,42.878323],[19.036306,42.880439],[18.993419,42.896715],[18.971934,42.896959],[18.957042,42.888861],[18.946788,42.865709],[18.925792,42.853909],[18.917979,42.842434],[18.918712,42.829047],[18.935802,42.810207],[18.927745,42.788886],[18.930675,42.768215],[18.944184,42.749335],[18.980805,42.733303],[18.982107,42.71776],[18.978689,42.70189],[18.983165,42.693427],[18.994314,42.684516],[19.023448,42.646389],[19.063731,42.60932],[19.080089,42.589016],[19.098481,42.571763],[19.145518,42.553168],[19.167817,42.532457],[19.218761,42.508775],[19.24171,42.49258],[19.255056,42.475572],[19.259288,42.460761],[19.253103,42.450426],[19.22877,42.436916],[19.214122,42.409084],[19.203136,42.398668],[19.196625,42.387112],[19.205903,42.349351],[19.203624,42.331448],[19.192393,42.322089],[19.156749,42.322496],[19.135753,42.310207],[19.10963,42.300279],[19.11671,42.289496]]}},{"type":"Feature","properties":{"id":5432,"wso_id":129496,"objectid":1884,"featurecla":"River","scalerank":10,"rivernum":402884,"dissolve":"402884River","name":"Salto","min_zoom":6,"strokeweig":0.2,"name_alt":"Velino, Nera","min_label":7,"label":"Salto","wikidataid":"Q71609","name_ar":null,"name_bn":null,"name_de":"Salto","name_en":"Salto","name_es":null,"name_fr":"Salto","name_el":null,"name_hi":null,"name_hu":null,"name_id":null,"name_it":"Salto","name_ja":null,"name_ko":null,"name_nl":"Salto","name_pl":null,"name_pt":null,"name_ru":null,"name_sv":null,"name_tr":null,"name_vi":null,"name_zh":null,"ne_id":1159109783,"name_fa":null,"name_he":null,"name_uk":null,"name_ur":null,"name_zht":null},"bbox":[12.417166,41.806138,13.702322,42.569403],"geometry":{"type":"LineString","coordinates":[[13.702322,41.806138],[13.693858,41.819403],[13.661469,41.849026],[13.595714,41.901557],[13.542166,41.950588],[13.539561,41.971503],[13.569509,41.969916],[13.613943,41.961412],[13.629649,41.965155],[13.635916,41.979071],[13.632335,42.000678],[13.621104,42.018459],[13.608897,42.022935],[13.5949,42.022162],[13.564138,42.029202],[13.533539,42.01081],[13.458507,42.004299],[13.433442,41.99901],[13.412283,42.004299],[13.382579,42.027167],[13.358165,42.055569],[13.349294,42.073879],[13.346853,42.086168],[13.338145,42.100328],[13.316661,42.118313],[13.283458,42.140041],[13.250336,42.157294],[13.229015,42.164455],[13.214529,42.173],[13.178396,42.21776],[13.155284,42.235012],[13.129731,42.244534],[13.083263,42.255683],[13.014415,42.297024],[13.000987,42.314439],[12.990082,42.33275],[12.976573,42.347805],[12.961192,42.357733],[12.931895,42.369778],[12.906423,42.391262],[12.888682,42.401353],[12.871104,42.407131],[12.847423,42.411444],[12.824474,42.434516],[12.799083,42.449856],[12.782725,42.478013],[12.74464,42.512193],[12.728038,42.535468],[12.703949,42.555406],[12.665538,42.566148],[12.623057,42.568834],[12.58961,42.569403],[12.559581,42.560289],[12.525076,42.53974],[12.441173,42.483629],[12.424815,42.468166],[12.417166,42.441352]]}},{"type":"Feature","properties":{"id":6662,"wso_id":129541,"objectid":2103,"featurecla":"River","scalerank":10,"rivernum":403103,"dissolve":"403103River","name":"Volturno","min_zoom":6,"strokeweig":0.2,"name_alt":null,"min_label":7,"label":"Volturno","wikidataid":"Q572191","name_ar":"فولتورنو","name_bn":null,"name_de":"Volturno","name_en":"Volturno","name_es":"Volturno","name_fr":"Volturno","name_el":null,"name_hi":null,"name_hu":"Volturno","name_id":null,"name_it":"Volturno","name_ja":"ヴォルトゥルノ川","name_ko":"볼투르노강","name_nl":"Volturno","name_pl":"Volturno","name_pt":"Volturno","name_ru":"Вольтурно","name_sv":"Volturno","name_tr":null,"name_vi":null,"name_zh":"沃尔图诺河","ne_id":1159110119,"name_fa":"والتورنو","name_he":null,"name_uk":null,"name_ur":null,"name_zht":"沃尔图诺河"},"bbox":[13.917979,41.023668,14.900157,41.45185],"geometry":{"type":"LineString","coordinates":[[14.571544,41.429836],[14.591645,41.444648],[14.613617,41.45185],[14.638357,41.448391],[14.656423,41.435045],[14.662608,41.418647],[14.662934,41.402289],[14.667003,41.388983],[14.680919,41.374661],[14.728201,41.335354],[14.736827,41.31802],[14.740001,41.303127],[14.749034,41.288804],[14.763031,41.279975],[14.794688,41.275133],[14.811697,41.263373],[14.829763,41.254543],[14.848806,41.258612],[14.867198,41.267524],[14.8838,41.27025],[14.894867,41.261542],[14.900157,41.242662],[14.896821,41.221666],[14.887462,41.207668],[14.876313,41.197414],[14.859874,41.173489],[14.844981,41.163235],[14.82545,41.157131],[14.784923,41.152533],[14.747081,41.137926],[14.731619,41.138251],[14.722911,41.149319],[14.721202,41.19009],[14.715099,41.20718],[14.698497,41.217841],[14.672211,41.224107],[14.642833,41.22484],[14.594249,41.218411],[14.534434,41.213568],[14.49936,41.204006],[14.472504,41.190497],[14.460216,41.177476],[14.453624,41.165432],[14.440684,41.154202],[14.421397,41.150702],[14.378429,41.164008],[14.359548,41.160549],[14.331554,41.151801],[14.24936,41.140855],[14.233409,41.135159],[14.22755,41.127672],[14.213227,41.118638],[14.192719,41.110989],[14.171886,41.106431],[14.086436,41.107123],[14.057384,41.099595],[14.036632,41.088121],[14.025645,41.077867],[14.012218,41.06981],[13.958263,41.05801],[13.941905,41.049221],[13.917979,41.023668]]}},{"type":"Feature","properties":{"id":6851,"wso_id":129540,"objectid":6149,"featurecla":"River","scalerank":11,"rivernum":407149,"dissolve":"407149River","name":"Sacco","min_zoom":6.7,"strokeweig":0.2,"name_alt":"Liri, Garigliano","min_label":7.7,"label":"Sacco","wikidataid":"Q547937","name_ar":null,"name_bn":null,"name_de":"Sacco","name_en":"Sacco","name_es":"Sacco","name_fr":"Sacco","name_el":null,"name_hi":null,"name_hu":"Sacco","name_id":null,"name_it":"Sacco","name_ja":null,"name_ko":null,"name_nl":"Sacco","name_pl":null,"name_pt":null,"name_ru":null,"name_sv":"Sacco","name_tr":null,"name_vi":null,"name_zh":"薩科河","ne_id":1159116557,"name_fa":null,"name_he":null,"name_uk":null,"name_ur":null,"name_zht":"薩科河"},"bbox":[12.74822,41.223578,13.875499,41.797349],"geometry":{"type":"LineString","coordinates":[[12.74822,41.727688],[12.774181,41.756293],[12.799327,41.779202],[12.823497,41.793931],[12.850434,41.797349],[12.882823,41.792914],[12.957693,41.776679],[12.998871,41.755683],[13.08725,41.722846],[13.196788,41.669745],[13.246837,41.650051],[13.265961,41.638088],[13.281912,41.622952],[13.300141,41.597561],[13.323253,41.586656],[13.368663,41.549954],[13.390147,41.538479],[13.410411,41.535305],[13.457774,41.535712],[13.518403,41.526597],[13.541677,41.52733],[13.559581,41.525539],[13.598888,41.498277],[13.660655,41.461859],[13.683767,41.442043],[13.703298,41.42829],[13.725597,41.424506],[13.759288,41.425523],[13.806163,41.423489],[13.848969,41.416734],[13.859711,41.419257],[13.872325,41.400295],[13.875336,41.393622],[13.875499,41.388495],[13.874766,41.381659],[13.869477,41.35814],[13.872569,41.335395],[13.867524,41.321601],[13.867931,41.309312],[13.866954,41.305609],[13.865489,41.302436],[13.863048,41.299302],[13.859874,41.296047],[13.854828,41.292629],[13.84669,41.288031],[13.837576,41.2862],[13.830414,41.284003],[13.82252,41.280585],[13.817556,41.276597],[13.812999,41.269477],[13.812022,41.264716],[13.812511,41.260321],[13.810069,41.256741],[13.804942,41.25373],[13.770763,41.249213],[13.764334,41.235338],[13.759451,41.223578]]}}]}
