{"type":"FeatureCollection","source":{"title":"Natural Earth 1:10m rivers and lake centerlines","url":"https://github.com/nvkelso/natural-earth-vector/blob/master/geojson/ne_10m_rivers_lake_centerlines.geojson","upstreamGitBlob":"61a0d7137a6ff1113cc259525e7479c63d5fec86","upstreamSha256":"bb854a900ecbd3b408df46d5e16e3e0f974ba55993f9d8b5c26e855273c0905a","license":"Public domain","terms":"https://www.naturalearthdata.com/about/terms-of-use/"},"features":[{"type":"Feature","properties":{"dissolve":"220River","scalerank":6.0,"featurecla":"River","name":"Okavango","name_alt":null,"rivernum":220,"note":null,"min_zoom":5.0,"name_en":"Okavango","min_label":6.0},"bbox":[21.503429,-21.264825,24.74171,-18.060235],"geometry":{"type":"MultiLineString","coordinates":[[[21.503429,-18.060235],[21.515554,-18.068292],[21.556651,-18.077162],[21.565603,-18.084812],[21.57366,-18.103204],[21.592784,-18.104506],[21.6338,-18.094415],[21.645274,-18.095636],[21.671641,-18.103448],[21.681651,-18.108738],[21.683279,-18.112319],[21.686697,-18.125502],[21.688487,-18.129083],[21.694021,-18.13185],[21.707449,-18.136082],[21.712901,-18.139662],[21.747569,-18.170831],[21.757986,-18.18377],[21.782156,-18.229425],[21.78533,-18.242527],[21.792491,-18.251316],[21.827566,-18.278985],[21.840505,-18.293634],[21.847911,-18.313653],[21.851085,-18.332452],[21.8567,-18.351576],[21.893321,-18.402276],[21.905772,-18.415379],[21.921804,-18.424005],[21.928233,-18.425144],[21.93157,-18.423517],[21.935476,-18.417169],[21.954519,-18.422865],[21.983653,-18.427097],[22.012869,-18.427911],[22.031668,-18.424005],[22.032481,-18.445245],[22.045339,-18.451104],[22.059744,-18.455499],[22.067882,-18.480483],[22.07252,-18.487644],[22.077403,-18.493015],[22.079356,-18.49627],[22.078136,-18.520033],[22.079356,-18.527032],[22.093516,-18.55226],[22.097585,-18.564386],[22.093191,-18.574721],[22.105235,-18.59002],[22.140554,-18.612237],[22.152029,-18.634942],[22.170828,-18.637221],[22.175059,-18.646498],[22.181895,-18.684584],[22.218272,-18.737807],[22.226573,-18.745457],[22.22755,-18.749851],[22.246023,-18.767755],[22.250743,-18.769952],[22.250662,-18.781752],[22.25172,-18.790867],[22.255626,-18.798761],[22.264415,-18.80755],[22.278087,-18.813165],[22.370616,-18.814955],[22.38323,-18.817315],[22.390391,-18.823419],[22.405935,-18.849949],[22.409353,-18.863295],[22.415212,-18.869643],[22.500499,-18.893243],[22.51002,-18.902276],[22.525076,-18.924819],[22.541433,-18.940118],[22.556814,-18.951349],[22.56837,-18.9638],[22.572927,-18.982599],[22.577159,-18.992852],[22.595958,-19.013035],[22.600271,-19.023451],[22.598074,-19.035496],[22.588796,-19.053643],[22.587169,-19.061456],[22.607188,-19.089369],[22.646495,-19.098972],[22.755626,-19.091241],[22.779714,-19.086602],[22.795421,-19.07879],[22.802419,-19.071303],[22.808849,-19.065851],[22.817312,-19.062514],[22.8296,-19.061456],[22.843028,-19.063002],[22.852468,-19.066908],[22.85963,-19.071466],[22.867198,-19.075046],[22.898855,-19.079767],[22.908702,-19.082452],[22.91627,-19.087579],[22.923839,-19.094171],[22.93336,-19.099949],[22.946218,-19.10239],[22.987559,-19.10239],[23.000906,-19.104018],[23.0088,-19.107843],[23.015554,-19.112319],[23.025401,-19.116062],[23.068858,-19.12005],[23.086843,-19.127781],[23.094412,-19.146417],[23.100841,-19.156183],[23.131358,-19.184259],[23.141531,-19.198093],[23.171804,-19.270196],[23.189871,-19.292983],[23.24407,-19.334161],[23.251394,-19.341974],[23.25294,-19.351902],[23.252452,-19.365737],[23.253835,-19.378269],[23.260997,-19.38364],[23.266368,-19.386733],[23.273936,-19.393894],[23.283702,-19.400893],[23.295665,-19.403985],[23.300059,-19.401869],[23.305431,-19.397963],[23.310069,-19.396173],[23.312185,-19.400323],[23.322927,-19.414483],[23.326427,-19.417657],[23.39739,-19.410007],[23.408376,-19.414239],[23.415538,-19.424737],[23.487315,-19.484877],[23.502615,-19.494806],[23.515554,-19.505385],[23.525645,-19.520685]],[[22.522227,-18.922296],[22.521658,-18.970554],[22.554698,-19.028253],[22.551524,-19.052748],[22.55836,-19.075046],[22.562999,-19.097345],[22.566661,-19.116632],[22.593191,-19.137384],[22.622244,-19.155613],[22.633718,-19.169448],[22.651296,-19.181573],[22.665538,-19.194757],[22.677745,-19.211114],[22.687511,-19.250665],[22.694509,-19.288914],[22.734548,-19.301935],[22.768077,-19.323907],[22.776785,-19.359308],[22.795095,-19.3895],[22.816905,-19.423761],[22.839041,-19.451511],[22.87379,-19.469578],[22.902599,-19.495619],[22.934337,-19.501153],[22.966726,-19.483331],[22.982188,-19.491876],[22.997244,-19.502781],[23.011241,-19.515151],[23.016612,-19.527765],[23.050548,-19.539402],[23.083263,-19.53338],[23.103038,-19.532892],[23.122244,-19.53338],[23.139659,-19.541192],[23.155528,-19.549981],[23.249278,-19.564793],[23.344493,-19.561049]],[[23.272227,-19.405613],[23.283458,-19.456476],[23.318777,-19.50213],[23.329356,-19.527276],[23.340099,-19.555352],[23.36321,-19.576837],[23.381602,-19.60589],[23.474864,-19.655287],[23.594493,-19.670912]],[[23.528494,-19.522393],[23.574229,-19.582533],[23.590587,-19.617364],[23.596934,-19.653823],[23.594493,-19.670912]],[[24.739024,-21.264825],[24.74171,-21.223321],[24.737722,-21.205743],[24.673595,-21.157892],[24.649099,-21.146173],[24.639089,-21.143487],[24.629161,-21.142592],[24.620779,-21.139581],[24.615001,-21.130792],[24.598888,-21.112237],[24.571056,-21.102472],[24.514903,-21.090753],[24.463634,-21.063816],[24.419851,-21.047784],[24.399832,-21.037042],[24.382742,-21.020685],[24.366954,-20.995782],[24.36321,-20.980401],[24.367442,-20.96974],[24.373709,-20.9603],[24.375987,-20.948175],[24.372732,-20.936944],[24.353445,-20.906264],[24.351329,-20.887546],[24.366466,-20.788018],[24.38616,-20.744073],[24.396007,-20.673028],[24.411062,-20.624851],[24.432384,-20.578139],[24.478933,-20.504734],[24.500011,-20.457045],[24.505138,-20.413018],[24.478445,-20.389337],[24.457286,-20.389662],[24.421886,-20.4013],[24.401866,-20.402846],[24.378103,-20.39422],[24.362234,-20.37713],[24.334483,-20.337579],[24.296153,-20.308608],[24.281016,-20.293878],[24.25408,-20.242364],[24.242117,-20.24269],[24.228282,-20.249688],[24.208669,-20.242608],[24.182546,-20.215183],[24.17156,-20.206231],[24.156912,-20.198744],[24.147227,-20.19964],[24.13795,-20.204767],[24.124685,-20.209975],[24.086355,-20.21616],[24.076101,-20.221531],[24.058604,-20.236749],[24.047618,-20.241388],[24.035574,-20.244155],[24.026378,-20.247898],[24.018484,-20.253757],[23.995616,-20.279718],[23.995128,-20.283624],[23.996755,-20.288995],[23.997569,-20.294936],[23.995291,-20.300144],[23.933604,-20.315932],[23.92213,-20.316583],[23.909109,-20.312188],[23.880382,-20.294936],[23.875987,-20.312026],[23.868337,-20.300958],[23.858653,-20.269057],[23.84905,-20.253839],[23.788748,-20.209812],[23.75823,-20.177748],[23.749766,-20.177423],[23.741954,-20.18255],[23.730724,-20.185479],[23.715505,-20.183445],[23.644542,-20.160089],[23.598643,-20.139011],[23.57488,-20.124526],[23.549327,-20.114272],[23.516612,-20.108575],[23.483897,-20.106948],[23.458181,-20.109308],[23.394542,-20.131524],[23.363455,-20.135675],[23.327891,-20.1242],[23.352957,-20.080255],[23.381847,-20.041681],[23.56422,-19.852227],[23.607188,-19.81756],[23.617442,-19.806166],[23.623546,-19.784194],[23.617931,-19.762221],[23.593028,-19.720392],[23.587901,-19.703627],[23.590017,-19.687433],[23.594493,-19.670912]]]}},{"type":"Feature","properties":{"dissolve":"222Lake Centerline","scalerank":6.0,"featurecla":"Lake Centerline","name":"Orange","name_alt":null,"rivernum":222,"note":null,"min_zoom":5.0,"name_en":"Orange","min_label":6.0},"bbox":[24.730886,-30.680597,25.971772,-29.979181],"geometry":{"type":"MultiLineString","coordinates":[[[24.730886,-29.979181],[24.753184,-29.981785],[24.78419,-29.988295],[24.80714,-30.021824],[24.906749,-30.201349],[24.914154,-30.207045],[24.920421,-30.210789],[24.925385,-30.212579],[24.934337,-30.214369],[24.945242,-30.214776],[24.961843,-30.239923],[24.964773,-30.247003],[24.967214,-30.250909],[24.973643,-30.258803],[24.977794,-30.263116]],[[25.971772,-30.545424],[25.95574,-30.557631],[25.937999,-30.566339],[25.907156,-30.544773],[25.900401,-30.54282],[25.892019,-30.541843],[25.879161,-30.548272],[25.874278,-30.552179],[25.871104,-30.556573],[25.869884,-30.561863],[25.870209,-30.567397],[25.873464,-30.578464],[25.874278,-30.584405],[25.862559,-30.598321],[25.85963,-30.6006],[25.847911,-30.610528],[25.839366,-30.617527],[25.77589,-30.658217],[25.745209,-30.673191],[25.72519,-30.680597],[25.696869,-30.67726],[25.684825,-30.673679],[25.665457,-30.662612],[25.65976,-30.661065],[25.634288,-30.656589],[25.628998,-30.654229],[25.625011,-30.650893],[25.622325,-30.646336],[25.620697,-30.640802],[25.617117,-30.616388],[25.615001,-30.611017],[25.610932,-30.606378],[25.579194,-30.602553],[25.506114,-30.612156]]]}},{"type":"Feature","properties":{"dissolve":"222River","scalerank":6.0,"featurecla":"River","name":"Orange","name_alt":null,"rivernum":222,"note":null,"min_zoom":5.0,"name_en":"Orange","min_label":6.0},"bbox":[23.627615,-30.679864,29.059662,-29.073093],"geometry":{"type":"MultiLineString","coordinates":[[[29.057546,-29.081882],[29.059662,-29.101088],[29.05421,-29.116062],[29.031505,-29.143243],[29.021983,-29.159031],[29.016612,-29.176609],[29.008556,-29.247979],[29.003347,-29.262709],[28.992442,-29.277276],[28.971202,-29.296075],[28.958425,-29.304376],[28.946544,-29.308526],[28.932628,-29.30519],[28.908783,-29.286147],[28.893972,-29.281671],[28.878917,-29.283054],[28.869884,-29.286635],[28.838471,-29.304864],[28.822846,-29.317885],[28.810802,-29.333998],[28.803966,-29.352879],[28.802338,-29.373386],[28.804779,-29.41489],[28.802989,-29.435398],[28.797537,-29.450209],[28.789317,-29.461602],[28.766531,-29.48089],[28.759369,-29.484063],[28.743582,-29.486342],[28.736095,-29.490899],[28.732026,-29.499444],[28.733979,-29.519464],[28.732351,-29.528741],[28.724539,-29.537286],[28.709076,-29.544285],[28.706309,-29.552911],[28.706554,-29.572768],[28.708263,-29.58172],[28.712494,-29.590753],[28.731456,-29.584405],[28.746023,-29.597345],[28.760753,-29.615655],[28.780691,-29.624933],[28.780691,-29.631199],[28.764578,-29.636651],[28.756358,-29.638523],[28.746593,-29.638604],[28.759044,-29.655694],[28.765554,-29.661554],[28.773936,-29.665948],[28.762462,-29.675795],[28.748627,-29.675226],[28.737071,-29.677586],[28.732351,-29.696303],[28.733653,-29.706557],[28.737234,-29.712905],[28.74171,-29.718438],[28.773204,-29.778171],[28.774018,-29.786961],[28.773936,-29.799005],[28.777436,-29.812026],[28.784109,-29.824884],[28.786713,-29.837416],[28.779063,-29.849949],[28.768972,-29.854506],[28.759369,-29.85353],[28.750011,-29.850925],[28.740489,-29.850518],[28.730886,-29.854343],[28.723725,-29.860528],[28.717377,-29.86769],[28.709972,-29.874363],[28.695242,-29.880222],[28.663992,-29.884129],[28.652924,-29.890476],[28.649425,-29.900893],[28.65032,-29.914972],[28.653738,-29.929132],[28.657807,-29.93963],[28.666759,-29.950209],[28.679454,-29.958429],[28.693614,-29.964044],[28.707042,-29.966974],[28.701589,-29.977227],[28.690929,-29.982924],[28.666596,-29.989435],[28.653412,-29.995782],[28.647472,-30.002455],[28.636811,-30.022638],[28.62379,-30.034601],[28.609467,-30.038425],[28.577159,-30.03631],[28.562999,-30.038018],[28.541759,-30.048354],[28.529226,-30.052748],[28.514252,-30.051772],[28.487397,-30.041192],[28.471609,-30.041355],[28.4463,-30.04754],[28.421804,-30.050714],[28.397878,-30.048028],[28.374522,-30.036798],[28.364187,-30.0263],[28.347911,-30.00099],[28.336843,-29.99155],[28.30071,-29.984796],[28.269786,-29.998061],[28.239757,-30.016778],[28.206309,-30.026381],[28.163015,-30.023126],[28.140147,-30.0263],[28.130056,-30.039239],[28.124115,-30.053074],[28.109386,-30.061212],[28.075125,-30.070326],[28.057221,-30.072605],[28.005382,-30.061049],[27.996674,-30.061537],[27.971202,-30.06642],[27.944021,-30.066339],[27.933686,-30.070001],[27.925304,-30.076023],[27.918224,-30.083998],[27.897065,-30.118341],[27.893321,-30.13128],[27.893077,-30.145929],[27.901134,-30.17075],[27.902599,-30.182631],[27.896983,-30.194838],[27.8921,-30.198907],[27.880138,-30.205987],[27.875011,-30.21087],[27.871593,-30.216323],[27.866222,-30.228692],[27.862722,-30.234389],[27.83546,-30.247491],[27.819428,-30.264174],[27.814952,-30.267999],[27.797862,-30.273614],[27.78004,-30.274347],[27.746104,-30.267999],[27.742198,-30.265069],[27.735362,-30.254897],[27.730479,-30.25213],[27.721121,-30.252944],[27.717296,-30.258966],[27.717459,-30.267511],[27.71933,-30.276788],[27.73406,-30.315932],[27.735281,-30.334893],[27.723725,-30.354181],[27.689871,-30.367608],[27.621837,-30.343927],[27.586192,-30.35239],[27.5796,-30.361261],[27.572765,-30.383152],[27.565929,-30.390558],[27.557628,-30.391534],[27.546967,-30.389174],[27.492686,-30.367608],[27.477061,-30.356134],[27.466238,-30.340997],[27.458914,-30.316583],[27.451589,-30.309991],[27.435557,-30.30991],[27.414317,-30.317397],[27.407237,-30.318373],[27.397227,-30.317234],[27.376475,-30.312026],[27.365733,-30.310968]],[[24.730886,-29.979181],[24.70696,-29.974298],[24.691417,-29.968927],[24.678966,-29.96087],[24.670339,-29.950128],[24.665945,-29.934259],[24.662852,-29.913588],[24.6574,-29.895685],[24.646007,-29.888116],[24.604421,-29.882013],[24.575369,-29.866143],[24.529307,-29.81642],[24.521495,-29.812433],[24.510183,-29.8117],[24.488048,-29.813002],[24.483084,-29.80877],[24.47755,-29.789972],[24.474376,-29.785658],[24.441905,-29.78517],[24.427908,-29.779148],[24.408865,-29.764581],[24.364513,-29.713393],[24.355235,-29.697117],[24.347667,-29.660496],[24.34075,-29.649102],[24.269705,-29.635593],[24.258718,-29.624933],[24.248302,-29.621108],[24.183035,-29.63478],[24.16212,-29.625909],[24.130544,-29.599949],[24.090994,-29.587579],[24.0678,-29.571222],[24.032725,-29.539239],[24.024587,-29.528985],[24.011241,-29.506524],[24.004893,-29.498386],[23.997081,-29.494155],[23.976248,-29.487237],[23.967296,-29.48089],[23.960623,-29.478204],[23.932872,-29.470392],[23.924815,-29.465346],[23.92213,-29.45379],[23.92571,-29.38714],[23.918956,-29.368666],[23.898692,-29.361179],[23.882986,-29.35239],[23.871267,-29.332696],[23.862315,-29.3117],[23.854666,-29.299005],[23.836192,-29.294936],[23.782725,-29.290053],[23.771495,-29.282078],[23.772716,-29.236017],[23.768077,-29.212823],[23.754405,-29.202813],[23.739675,-29.200128],[23.722341,-29.193292],[23.706716,-29.184421],[23.697032,-29.17547],[23.690196,-29.156671],[23.693614,-29.123224],[23.690196,-29.107843],[23.680919,-29.09767],[23.665457,-29.086358],[23.647878,-29.077081],[23.631765,-29.073093],[23.627615,-29.07407]],[[27.376475,-30.313328],[27.36907,-30.313653],[27.361908,-30.314955],[27.34905,-30.320164],[27.361746,-30.341729],[27.370209,-30.361017],[27.380382,-30.354994],[27.38974,-30.354181],[27.39796,-30.358575],[27.404307,-30.367852],[27.389252,-30.386407],[27.368256,-30.387628],[27.345714,-30.385105],[27.325206,-30.392104],[27.323253,-30.409112],[27.343028,-30.421726],[27.356456,-30.432143],[27.33489,-30.443699],[27.326915,-30.441583],[27.302257,-30.430841],[27.294444,-30.430027],[27.286225,-30.439874],[27.289643,-30.448663],[27.299734,-30.454929],[27.311534,-30.457208],[27.316661,-30.461928],[27.311127,-30.472589],[27.297537,-30.488295],[27.289073,-30.491876],[27.276378,-30.492852],[27.25294,-30.491388],[27.252696,-30.489597],[27.248953,-30.485203],[27.243907,-30.480401],[27.239187,-30.477716],[27.234304,-30.477716],[27.230968,-30.483412],[27.226166,-30.485203],[27.208995,-30.485365],[27.200776,-30.489923],[27.187755,-30.501967],[27.146658,-30.498875],[27.131765,-30.501642],[27.13144,-30.508722],[27.136485,-30.517511],[27.136241,-30.525567],[27.11671,-30.538588],[27.098562,-30.537123],[27.079356,-30.529799],[27.057709,-30.525567],[27.010183,-30.533054],[26.998546,-30.538507],[27.00587,-30.550226],[27.026947,-30.567071],[27.033295,-30.586358],[27.024506,-30.590834],[26.985932,-30.587579],[26.965424,-30.593683],[26.947276,-30.606459],[26.93808,-30.623549],[26.945079,-30.642918],[26.934093,-30.651869],[26.921641,-30.65545],[26.893484,-30.655287],[26.877533,-30.658705],[26.864187,-30.673679],[26.85198,-30.676935],[26.834727,-30.670587],[26.822358,-30.656915],[26.807058,-30.644871],[26.780528,-30.642918],[26.772553,-30.646661],[26.751557,-30.660496],[26.742442,-30.663425],[26.734793,-30.662937],[26.730968,-30.662123],[26.726817,-30.661961],[26.719168,-30.663425],[26.712413,-30.666518],[26.702566,-30.675226],[26.694591,-30.676935],[26.683116,-30.675144],[26.677175,-30.671401],[26.670421,-30.668634],[26.656993,-30.66961],[26.636241,-30.678643],[26.627696,-30.679864],[26.635834,-30.66961],[26.635834,-30.663425],[26.617605,-30.656427],[26.595632,-30.654229],[26.550548,-30.655287],[26.534272,-30.651218],[26.491466,-30.630385],[26.479503,-30.621759],[26.476817,-30.614679],[26.472179,-30.587579],[26.457123,-30.570733],[26.448171,-30.562921],[26.441335,-30.559747],[26.311127,-30.581557],[26.28004,-30.579278],[26.266043,-30.563409],[26.259776,-30.543145],[26.244151,-30.535577],[26.224132,-30.532647],[26.204519,-30.525567],[26.193126,-30.513523],[26.184825,-30.500339],[26.171641,-30.489597],[26.146251,-30.485203],[26.139171,-30.493829],[26.140554,-30.51157],[26.135265,-30.526218],[26.108328,-30.525567],[26.072683,-30.514174],[26.059662,-30.513849],[26.002696,-30.528497],[25.985769,-30.535089],[25.971772,-30.545424]],[[25.506114,-30.612156],[25.467214,-30.613214],[25.431407,-30.592299],[25.396576,-30.563653],[25.361746,-30.545424],[25.314382,-30.546563],[25.290131,-30.543145],[25.279796,-30.529229],[25.273367,-30.510675],[25.257742,-30.497003],[25.217703,-30.477716],[25.184581,-30.455743],[25.131114,-30.399754],[25.043224,-30.330418],[25.038259,-30.322442],[25.035248,-30.311212],[25.033295,-30.288995],[25.029063,-30.283136],[24.98585,-30.266127],[24.977794,-30.263116]]]}},{"type":"Feature","properties":{"dissolve":"336River","scalerank":6.0,"featurecla":"River","name":"Limpopo","name_alt":null,"rivernum":336,"note":null,"min_zoom":5.0,"name_en":"Limpopo","min_label":6.0},"bbox":[26.961518,-25.191339,33.65797,-22.126316],"geometry":{"type":"MultiLineString","coordinates":[[[26.961518,-23.737319],[26.966807,-23.718601],[26.985932,-23.686863],[27.003835,-23.645685],[27.013276,-23.63836],[27.023855,-23.642429],[27.029307,-23.654636],[27.037039,-23.665541],[27.054291,-23.666355],[27.069591,-23.655938],[27.06894,-23.641534],[27.062592,-23.624037],[27.061127,-23.604181],[27.067882,-23.607273],[27.074718,-23.611017],[27.077729,-23.601902],[27.083588,-23.59588],[27.102061,-23.583836],[27.095225,-23.583836],[27.103282,-23.571629],[27.112885,-23.564142],[27.123953,-23.563002],[27.136241,-23.570164],[27.140636,-23.558282],[27.135265,-23.551772],[27.126882,-23.545261],[27.122569,-23.532892],[27.126882,-23.524835],[27.137218,-23.523289],[27.148529,-23.527358],[27.156749,-23.536554],[27.161062,-23.529718],[27.168468,-23.521417],[27.17099,-23.515476],[27.178233,-23.52337],[27.186127,-23.527195],[27.195079,-23.527032],[27.205089,-23.522963],[27.19101,-23.503757],[27.202078,-23.491876],[27.239187,-23.481378],[27.277599,-23.463556],[27.295014,-23.451593],[27.311534,-23.436944],[27.335053,-23.402358],[27.349539,-23.39129],[27.360606,-23.422296],[27.37086,-23.416925],[27.380382,-23.405206],[27.383311,-23.399347],[27.395437,-23.393976],[27.409923,-23.389174],[27.417979,-23.391127],[27.410574,-23.405613],[27.424734,-23.41253],[27.434581,-23.406427],[27.442638,-23.394952],[27.452159,-23.385186],[27.465017,-23.380304],[27.506765,-23.37892],[27.528331,-23.372979],[27.548432,-23.360691],[27.563243,-23.342706],[27.568777,-23.320245],[27.567312,-23.313653],[27.564464,-23.305678],[27.562918,-23.299168],[27.56544,-23.296401],[27.569021,-23.29461],[27.57252,-23.29046],[27.574718,-23.284682],[27.575613,-23.278985],[27.580007,-23.263686],[27.598643,-23.24448],[27.607432,-23.216648],[27.618663,-23.216974],[27.632823,-23.223484],[27.646658,-23.227472],[27.658295,-23.223321],[27.698009,-23.193373],[27.725108,-23.221612],[27.738699,-23.227472],[27.753184,-23.220636],[27.758881,-23.211358],[27.773692,-23.172784],[27.775157,-23.172377],[27.78297,-23.166843],[27.78419,-23.16546],[27.788829,-23.163588],[27.787039,-23.159682],[27.782644,-23.155287],[27.780365,-23.152358],[27.778412,-23.147638],[27.774018,-23.140639],[27.771088,-23.132826],[27.773692,-23.125014],[27.784434,-23.126886],[27.805919,-23.128269],[27.821788,-23.122898],[27.815359,-23.104506],[27.853282,-23.095554],[27.89503,-23.079441],[27.929454,-23.05698],[27.945567,-23.028823],[27.937429,-22.986505],[27.936941,-22.963718],[27.948741,-22.95379],[27.967865,-22.950698],[27.988862,-22.943699],[28.007823,-22.934584],[28.021251,-22.926446],[28.036876,-22.91131],[28.049327,-22.891127],[28.053477,-22.869073],[28.044932,-22.847589],[28.046641,-22.836765],[28.065359,-22.82879],[28.088308,-22.822442],[28.103282,-22.816583],[28.107188,-22.810561],[28.112722,-22.795261],[28.116791,-22.789239],[28.125092,-22.785333],[28.134939,-22.783217],[28.145274,-22.779636],[28.154552,-22.771905],[28.162039,-22.758803],[28.162201,-22.750909],[28.15919,-22.743097],[28.157237,-22.73089],[28.15919,-22.71795],[28.164073,-22.70851],[28.195567,-22.671563],[28.205089,-22.665704],[28.215831,-22.663018],[28.240164,-22.660821],[28.250011,-22.655613],[28.286388,-22.615737],[28.30128,-22.603692],[28.337983,-22.584405],[28.376394,-22.574884],[28.458914,-22.569675],[28.521983,-22.584649],[28.538097,-22.580092],[28.559337,-22.562921],[28.577159,-22.55991],[28.59669,-22.562514],[28.623464,-22.562677],[28.658376,-22.551772],[28.730724,-22.513849],[28.774099,-22.501316],[28.796153,-22.498061],[28.816335,-22.492852],[28.830658,-22.482273],[28.836355,-22.463067],[28.846121,-22.449884],[28.868907,-22.448744],[28.912039,-22.453546],[28.929779,-22.440769],[28.953054,-22.400567],[28.962901,-22.392022],[28.967296,-22.380222],[28.95989,-22.310073],[28.983165,-22.281752],[29.002371,-22.263198],[29.017507,-22.254815],[29.017345,-22.250339],[29.038178,-22.22381],[29.047374,-22.220147],[29.168386,-22.213881],[29.186046,-22.207696],[29.20224,-22.19435],[29.221609,-22.182061],[29.247813,-22.179132],[29.302338,-22.190118],[29.331065,-22.192722],[29.34962,-22.186537],[29.356456,-22.190851],[29.362804,-22.192234],[29.377452,-22.192804],[29.398936,-22.182061],[29.435639,-22.163018],[29.456309,-22.158624],[29.506358,-22.169936],[29.531261,-22.172377],[29.542003,-22.162449],[29.550385,-22.145929],[29.569753,-22.141778],[29.603526,-22.144952],[29.640554,-22.129083],[29.660818,-22.126316],[29.67921,-22.138198],[29.69101,-22.133966],[29.758311,-22.130792],[29.778819,-22.136163],[29.836925,-22.172296],[29.871023,-22.179132],[29.895518,-22.191095],[29.931651,-22.194187],[29.946056,-22.198175],[29.973399,-22.213881],[29.983328,-22.217625],[30.004649,-22.222101],[30.014903,-22.226902],[30.034109,-22.245945],[30.035411,-22.250502],[30.03769,-22.253757],[30.067393,-22.257013],[30.082123,-22.262709],[30.110606,-22.282159],[30.134532,-22.29339],[30.15211,-22.29461],[30.196544,-22.288995],[30.221202,-22.290867],[30.239838,-22.295912],[30.254893,-22.30462],[30.268809,-22.316339],[30.300304,-22.336847],[30.334402,-22.344659],[30.371511,-22.343438],[30.412201,-22.336765],[30.431244,-22.331069],[30.468761,-22.314955],[30.487885,-22.310073],[30.506847,-22.309503],[30.571707,-22.31642],[30.600597,-22.316339],[30.609874,-22.318536],[30.625092,-22.328546],[30.631928,-22.33058],[30.646902,-22.326349],[30.673839,-22.308445],[30.69337,-22.302667],[30.804698,-22.294366],[30.837413,-22.282159],[30.86671,-22.289483],[30.926768,-22.295587],[31.035655,-22.319513],[31.069753,-22.333673],[31.087169,-22.336765],[31.104015,-22.333185],[31.137218,-22.318292],[31.151947,-22.316339],[31.16269,-22.322605],[31.183116,-22.345392],[31.190359,-22.350518],[31.197358,-22.352472],[31.212983,-22.361749],[31.220876,-22.364679],[31.229015,-22.363783],[31.245209,-22.357436],[31.255056,-22.357924],[31.265147,-22.365411],[31.288503,-22.397312],[31.296804,-22.41253],[31.3331,-22.430597],[31.355968,-22.436863],[31.375092,-22.429213],[31.391856,-22.426446],[31.467296,-22.445977],[31.552989,-22.453546],[31.571218,-22.458022],[31.584727,-22.469171],[31.604503,-22.493829],[31.672862,-22.552423],[31.682221,-22.569187],[31.726654,-22.623875],[31.74171,-22.638523],[31.76295,-22.643894],[31.78769,-22.644382],[31.80836,-22.647882],[31.816824,-22.662286],[31.824148,-22.68491],[31.841563,-22.701511],[31.878917,-22.727879],[31.891124,-22.742039],[31.90211,-22.75864],[31.910085,-22.777765],[31.913015,-22.799493],[31.916515,-22.807794],[31.924327,-22.817804],[31.932546,-22.826104],[31.937266,-22.829604],[31.944347,-22.83351],[31.945567,-22.84295],[31.945323,-22.854425],[31.947195,-22.864435],[31.959402,-22.879815],[32.012706,-22.929864],[32.01767,-22.937433],[32.020925,-22.945245],[32.02532,-22.951186],[32.033376,-22.95379],[32.040457,-22.956882],[32.057384,-22.973647],[32.063894,-22.981785],[32.084076,-23.015639],[32.097179,-23.025323],[32.144216,-23.033624],[32.164073,-23.044854],[32.222911,-23.096694],[32.231863,-23.112807],[32.238048,-23.173761],[32.255626,-23.241143],[32.389252,-23.434259],[32.442882,-23.484877],[32.453298,-23.518731],[32.459402,-23.556329],[32.475352,-23.598077],[32.494721,-23.63006],[32.500092,-23.651056],[32.489757,-23.678155],[32.491466,-23.690851],[32.495372,-23.702325],[32.498953,-23.707371],[32.499278,-23.712335],[32.49586,-23.737726],[32.49586,-23.748224],[32.504975,-23.765151],[32.531261,-23.787042],[32.544444,-23.827325],[32.561615,-23.842625],[32.58017,-23.854425],[32.591401,-23.864923],[32.59669,-23.885105],[32.597179,-23.909601],[32.592296,-23.933282],[32.581554,-23.95086],[32.578136,-23.967625],[32.588634,-23.988783],[32.611827,-24.022475],[32.617198,-24.067885],[32.622162,-24.08823],[32.635834,-24.107924],[32.761811,-24.215834],[32.777273,-24.247573],[32.824799,-24.296889],[32.872976,-24.385186],[32.886974,-24.439304],[32.906261,-24.452081],[32.932709,-24.451593],[32.961355,-24.440932],[33.009207,-24.495538],[33.04127,-24.516127],[33.058116,-24.531671],[33.064382,-24.550226],[33.0796,-24.544122],[33.090912,-24.546075],[33.097667,-24.555108],[33.098643,-24.571222],[33.108816,-24.566583],[33.112804,-24.563816],[33.15683,-24.615655],[33.164317,-24.618666],[33.174571,-24.619643],[33.190929,-24.619073],[33.200857,-24.621026],[33.207774,-24.623875],[33.214447,-24.623549],[33.224864,-24.615655],[33.242117,-24.60589],[33.259695,-24.606948],[33.274425,-24.616632],[33.282807,-24.632745],[33.282644,-24.651788],[33.27825,-24.665541],[33.277924,-24.673272],[33.290294,-24.673028],[33.295665,-24.669285],[33.302664,-24.656101],[33.307546,-24.653253],[33.317556,-24.65545],[33.333995,-24.664727],[33.352143,-24.670587],[33.364757,-24.680027],[33.389659,-24.704115],[33.482188,-24.776788],[33.493093,-24.767511],[33.501394,-24.758233],[33.510509,-24.752862],[33.523692,-24.755711],[33.527354,-24.7645],[33.52711,-24.777032],[33.530284,-24.784112],[33.5442,-24.776788],[33.532807,-24.755222],[33.52711,-24.735528],[33.530691,-24.726902],[33.580333,-24.759698],[33.585216,-24.765964],[33.585216,-24.796563],[33.585541,-24.798761],[33.586436,-24.827],[33.585216,-24.831394],[33.593028,-24.838311],[33.615245,-24.848647],[33.619884,-24.854913],[33.618744,-24.863702],[33.613536,-24.884942],[33.612397,-24.896173],[33.616222,-24.909112],[33.625499,-24.911472],[33.636648,-24.910333],[33.646576,-24.913263],[33.655284,-24.919936],[33.65797,-24.922784],[33.646576,-24.940606],[33.618175,-24.965509],[33.625011,-24.974949],[33.634939,-24.983412],[33.640391,-24.985691],[33.645763,-25.000909],[33.648204,-25.012058],[33.646576,-25.023126],[33.632904,-25.032892],[33.617117,-25.024835],[33.604096,-25.022149],[33.593354,-25.064955],[33.580333,-25.075372],[33.564464,-25.083022],[33.550385,-25.092136],[33.546967,-25.097507],[33.536713,-25.119317],[33.530772,-25.122003],[33.515391,-25.12241],[33.509939,-25.126153],[33.509207,-25.141453],[33.52589,-25.178643],[33.529226,-25.191339]]]}},{"type":"Feature","properties":{"dissolve":"41River","scalerank":2.0,"featurecla":"River","name":"Congo","name_alt":null,"rivernum":41,"note":null,"min_zoom":2.1,"name_en":"Congo","min_label":3.1},"bbox":[26.441335,-8.275079,27.080984,-5.610284],"geometry":{"type":"MultiLineString","coordinates":[[[26.441335,-8.271987],[26.465261,-8.261082],[26.49114,-8.263116],[26.539643,-8.275079],[26.559825,-8.271905],[26.584402,-8.262221],[26.605398,-8.248549],[26.615489,-8.233412],[26.640554,-8.246108],[26.670014,-8.229832],[26.699962,-8.20851],[26.725352,-8.206882],[26.731375,-8.193373],[26.742931,-8.187677],[26.754405,-8.18377],[26.759369,-8.175795],[26.763276,-8.163018],[26.772878,-8.16131],[26.78419,-8.160821],[26.793549,-8.151544],[26.794037,-8.137872],[26.786713,-8.126479],[26.773692,-8.114109],[26.777924,-8.10296],[26.784923,-8.09295],[26.786143,-8.082533],[26.773692,-8.069675],[26.780365,-8.066827],[26.794363,-8.058282],[26.801036,-8.055352],[26.797944,-8.051446],[26.793549,-8.041681],[26.812266,-8.037286],[26.83253,-8.009942],[26.848888,-8.015069],[26.855561,-8.000177],[26.864268,-7.98976],[26.883556,-7.973484],[26.886322,-7.97267],[26.89446,-7.973972],[26.897227,-7.973484],[26.897878,-7.97088],[26.896576,-7.962335],[26.897227,-7.959812],[26.903819,-7.95379],[26.906668,-7.949233],[26.910655,-7.946466],[26.934662,-7.944757],[26.947358,-7.942234],[26.959076,-7.937188],[26.969493,-7.929132],[26.972341,-7.91839],[26.963959,-7.908543],[26.952159,-7.899591],[26.945079,-7.891534],[26.966319,-7.884698],[26.975352,-7.865655],[26.973643,-7.845554],[26.962413,-7.836277],[26.943126,-7.833022],[26.92571,-7.824721],[26.911713,-7.813816],[26.903412,-7.802179],[26.889903,-7.765558],[26.878835,-7.752455],[26.841238,-7.744155],[26.827891,-7.735284],[26.79892,-7.695164],[26.795421,-7.688409],[26.793549,-7.678643],[26.795421,-7.665541],[26.805431,-7.644708],[26.812266,-7.613214],[26.823334,-7.597182],[26.854991,-7.56935],[26.862885,-7.538914],[26.858897,-7.49741],[26.863699,-7.460951],[26.897227,-7.445815],[26.910167,-7.450046],[26.920909,-7.456882],[26.931733,-7.458022],[26.945079,-7.445815],[26.950857,-7.430027],[26.951915,-7.367364],[26.958751,-7.348484],[27.01946,-7.264337],[27.023204,-7.257338],[27.026947,-7.247247],[27.028901,-7.235284],[27.029063,-7.22381],[27.030772,-7.212905],[27.037608,-7.202813],[27.04005,-7.19435],[27.036062,-7.183608],[27.03004,-7.172214],[27.026947,-7.161554],[27.032237,-7.155287],[27.058523,-7.149347],[27.067882,-7.144871],[27.072032,-7.138198],[27.073985,-7.130792],[27.074718,-7.11004],[27.072683,-7.105645],[27.06308,-7.093927],[27.061127,-7.089532],[27.064464,-7.084161],[27.0713,-7.083022],[27.078054,-7.082859],[27.080984,-7.079441],[27.077729,-7.063897],[27.061453,-7.033624],[27.054291,-7.0145],[27.047455,-6.980401],[27.033783,-6.94907],[27.030691,-6.943862],[27.016531,-6.933119],[27.013276,-6.928155],[27.014252,-6.915948],[27.020763,-6.883477],[27.012136,-6.836358],[26.960704,-6.773858],[26.951915,-6.727065],[26.972911,-6.555108],[26.989675,-6.485284],[26.989757,-6.473158],[26.972911,-6.397475],[26.973888,-6.386895],[26.978445,-6.364109],[26.979096,-6.35589],[26.976573,-6.346612],[26.968028,-6.331394],[26.966075,-6.325209],[26.958751,-6.313816],[26.923269,-6.286554],[26.911632,-6.267755],[26.91212,-6.250339],[26.918386,-6.227227],[26.92685,-6.207452],[26.9345,-6.198907],[26.933604,-6.188979],[26.917735,-6.130711],[26.903412,-5.96616],[26.891124,-5.909601],[26.88974,-5.887058],[26.89267,-5.864109],[26.911632,-5.801121],[26.911632,-5.760105],[26.917735,-5.715346],[26.914561,-5.658217],[26.917735,-5.63714],[26.923106,-5.623061],[26.930431,-5.610284]]]}},{"type":"Feature","properties":{"dissolve":"45River","scalerank":2.0,"featurecla":"River","name":"Congo","name_alt":null,"rivernum":45,"note":null,"min_zoom":2.1,"name_en":"Congo","min_label":3.1},"bbox":[13.184337,-5.890476,24.292247,2.187445],"geometry":{"type":"MultiLineString","coordinates":[[[24.292247,0.781684],[24.274099,0.798774],[24.226003,0.867621],[24.217214,0.902045],[24.211192,0.913438],[24.20281,0.923611],[24.140147,0.971055],[23.909923,1.07453],[23.840587,1.085028],[23.825938,1.085639],[23.784679,1.08279],[23.771902,1.086208],[23.770681,1.091498],[23.763113,1.095404],[23.749034,1.105536],[23.741466,1.109646],[23.730235,1.113634],[23.706716,1.118109],[23.684093,1.119574],[23.676687,1.12226],[23.633311,1.155829],[23.607188,1.167914],[23.599132,1.173204],[23.592296,1.179755],[23.545421,1.238552],[23.531423,1.264594],[23.529063,1.267849],[23.52296,1.273871],[23.520437,1.277411],[23.51824,1.283067],[23.515147,1.294542],[23.51238,1.299913],[23.505626,1.30744],[23.481619,1.328233],[23.437918,1.391303],[23.379324,1.440253],[23.357921,1.464667],[23.350515,1.470242],[23.332774,1.480658],[23.323497,1.48782],[23.184337,1.643012],[23.144542,1.700466],[23.140554,1.710028],[23.134776,1.711249],[23.134776,1.714179],[23.126394,1.731757],[23.122,1.736396],[23.096609,1.757392],[23.089366,1.767198],[23.075613,1.79975],[23.05128,1.840888],[23.045421,1.847683],[23.036143,1.853787],[23.014903,1.862331],[23.004324,1.868272],[22.999441,1.876044],[22.989675,1.879747],[22.965099,1.898383],[22.95338,1.904731],[22.942393,1.907782],[22.84197,1.91474],[22.818777,1.9206],[22.808604,1.925482],[22.780528,1.944037],[22.769216,1.948025],[22.734874,1.950019],[22.71461,1.95893],[22.625499,2.043728],[22.608165,2.072943],[22.601085,2.082221],[22.584239,2.0963],[22.54656,2.118028],[22.529063,2.130968],[22.514822,2.145616],[22.508556,2.149115],[22.497732,2.151638],[22.464773,2.150702],[22.283376,2.18183],[22.268077,2.181464],[22.260997,2.180121],[22.242198,2.172553],[22.234386,2.171413],[22.227306,2.172187],[22.191417,2.183376],[22.092784,2.187445],[21.59669,2.148057],[21.568777,2.141059],[21.531423,2.121202],[21.517833,2.116767],[21.344412,2.091498],[21.319509,2.081895],[21.24114,2.033637],[21.218435,2.011257],[21.206798,2.005805],[21.164806,2.005723],[21.100515,1.995469],[20.980724,2.003119],[20.907481,2.016913],[20.643077,1.990505],[20.447276,1.992784],[20.385427,1.980496],[20.338308,1.963487],[20.326427,1.961737],[20.312511,1.962429],[20.306651,1.960517],[20.303233,1.954169],[20.273448,1.964423],[20.267019,1.965155],[20.154959,1.961371],[19.918386,1.893337],[19.846934,1.859971],[19.75587,1.829779],[19.740489,1.821397],[19.710867,1.797431],[19.695323,1.789008],[19.545665,1.748887],[19.494395,1.724229],[19.488699,1.723212],[19.476003,1.72252],[19.470225,1.721137],[19.465343,1.718573],[19.443533,1.703192],[19.434337,1.699083],[19.340994,1.669989],[19.142833,1.573594],[19.123302,1.563015],[19.006765,1.467149],[19.002371,1.461453],[18.996349,1.449083],[18.992442,1.443427],[18.987966,1.439887],[18.97169,1.433621],[18.959402,1.425564],[18.909841,1.375759],[18.83839,1.334581],[18.832693,1.329657],[18.823171,1.317979],[18.817882,1.313178],[18.777843,1.291124],[18.775808,1.287869],[18.774181,1.281602],[18.77296,1.278266],[18.764415,1.268663],[18.731619,1.249701],[18.71697,1.237331],[18.639659,1.148505],[18.627696,1.139594],[18.587657,1.11872],[18.571218,1.106472],[18.528331,1.058905],[18.481944,1.020331],[18.467703,1.005235],[18.466726,0.99372],[18.463308,0.986111],[18.450938,0.971747],[18.445567,0.963162],[18.432546,0.935329],[18.423106,0.92296],[18.400645,0.901394],[18.39088,0.889431],[18.381277,0.872585],[18.349132,0.7685],[18.329519,0.619005],[18.317882,0.590766],[18.310232,0.551052],[18.305431,0.492377],[18.28655,0.438666],[18.282481,0.420193],[18.277599,0.359076],[18.264171,0.297309],[18.256847,0.216417],[18.252208,0.19713],[18.243907,0.174831],[18.199229,0.099799],[18.195242,0.089464],[18.193126,0.078721],[18.192882,0.05268],[18.189626,0.040351],[18.167735,-0.009576],[18.149181,-0.089451],[18.143809,-0.101576],[18.091807,-0.172052],[18.078298,-0.198663],[18.069998,-0.20851],[18.024425,-0.244155],[17.969737,-0.310724],[17.862966,-0.402683],[17.741466,-0.533217],[17.72755,-0.552911],[17.663748,-0.612644],[17.658214,-0.619561],[17.653982,-0.627374],[17.652029,-0.642022],[17.650401,-0.646173],[17.647146,-0.649835],[17.635427,-0.658217],[17.622488,-0.673191],[17.601736,-0.68849],[17.410899,-0.918145],[17.384939,-0.942315],[17.364431,-0.967136],[17.356863,-0.973321],[17.330007,-0.986342],[17.327159,-0.991632],[17.307384,-1.014825],[17.29713,-1.020929],[17.244884,-1.035658],[17.194347,-1.04282],[17.174978,-1.048028],[17.108328,-1.075535],[17.060069,-1.089044],[17.028087,-1.094252],[17.021983,-1.097019],[17.011485,-1.104181],[17.005544,-1.106622],[17.002615,-1.112644],[16.979015,-1.140069],[16.939871,-1.174493],[16.908702,-1.210951],[16.862234,-1.248712],[16.839122,-1.262221],[16.83253,-1.268976],[16.828136,-1.276056],[16.817312,-1.30405],[16.7942,-1.345392],[16.778738,-1.382175],[16.762218,-1.405694],[16.725027,-1.479832],[16.692149,-1.5228],[16.668875,-1.569187],[16.635753,-1.620619],[16.628429,-1.637058],[16.623302,-1.653741],[16.622,-1.664972],[16.622488,-1.698907],[16.616628,-1.72853],[16.603689,-1.753839],[16.521983,-1.861505],[16.516612,-1.873549],[16.513438,-1.887221],[16.507253,-1.890069],[16.489919,-1.903334],[16.474294,-1.910007],[16.469493,-1.912612],[16.460378,-1.92075],[16.445079,-1.940362],[16.382091,-2.001967],[16.339773,-2.034031],[16.283946,-2.087416],[16.255626,-2.106785],[16.230724,-2.128839],[16.206309,-2.160658],[16.194102,-2.181817],[16.186941,-2.204441],[16.188162,-2.227553],[16.189626,-2.235284],[16.189464,-2.241632],[16.176443,-2.286635],[16.174327,-2.302911],[16.177745,-2.318292],[16.186941,-2.332045],[16.189382,-2.337335],[16.191173,-2.346694],[16.191824,-2.394952],[16.225108,-2.635105],[16.204031,-2.782566],[16.180349,-2.853936],[16.177745,-2.867852],[16.176524,-2.882257],[16.187755,-2.976251],[16.184011,-3.025893],[16.189382,-3.082208],[16.185232,-3.136244],[16.189464,-3.152846],[16.19866,-3.171726],[16.198985,-3.194675],[16.192882,-3.238214],[16.198171,-3.259291],[16.209727,-3.270847],[16.22169,-3.278985],[16.22698,-3.289727],[16.225108,-3.313002],[16.220225,-3.331476],[16.207042,-3.361749],[16.157888,-3.447117],[16.13738,-3.500502],[16.115001,-3.544122],[16.052745,-3.619968],[16.012218,-3.702081],[16.004812,-3.724623],[15.990652,-3.738783],[15.973806,-3.78631],[15.942638,-3.840671],[15.935557,-3.848321],[15.929861,-3.858412],[15.911794,-3.917169],[15.882498,-3.945245],[15.843679,-3.965346],[15.799571,-3.97853],[15.754649,-3.985528],[15.710704,-3.99212],[15.566173,-4.037937],[15.548595,-4.046075],[15.533214,-4.057794],[15.520518,-4.076674],[15.489919,-4.174981],[15.484548,-4.18377],[15.462332,-4.206964],[15.458425,-4.213718],[15.449718,-4.217136],[15.424978,-4.229913],[15.38616,-4.244073],[15.274913,-4.300226],[15.2553,-4.312921],[15.227794,-4.324721],[15.20338,-4.3388],[15.192882,-4.358575],[15.187511,-4.372003],[15.097423,-4.499851],[15.075613,-4.519952],[15.022227,-4.546808],[15.014171,-4.557794],[15.007742,-4.570815],[14.930431,-4.646661],[14.848562,-4.783624],[14.840831,-4.799981],[14.83074,-4.814874],[14.814952,-4.827813],[14.768077,-4.848077],[14.701834,-4.8895],[14.672293,-4.899754],[14.633962,-4.903497],[14.622813,-4.899265],[14.591563,-4.880385],[14.579112,-4.876153],[14.574636,-4.873468],[14.566417,-4.860365],[14.561778,-4.855808],[14.553396,-4.854913],[14.531912,-4.855971],[14.527517,-4.851983],[14.519298,-4.84116],[14.500987,-4.840509],[14.481456,-4.845636],[14.469493,-4.851983],[14.449148,-4.873875],[14.436697,-4.88006],[14.417654,-4.883152],[14.372488,-4.90838],[14.318126,-4.917657],[14.209402,-4.916518],[14.172781,-4.922296],[14.146495,-4.937677],[14.07838,-5.010919],[14.054128,-5.027846],[14.031261,-5.031671],[14.014334,-5.01336],[14.005789,-5.029718],[13.984386,-5.049656],[13.979991,-5.064874],[13.987478,-5.111505],[13.986257,-5.13006],[13.975515,-5.167901],[13.957937,-5.195733],[13.931407,-5.212905],[13.893565,-5.218764],[13.875743,-5.233901],[13.853038,-5.299981],[13.825206,-5.314955],[13.806407,-5.307794],[13.779959,-5.275079],[13.760265,-5.266615],[13.739513,-5.269871],[13.725352,-5.280938],[13.720225,-5.296889],[13.726248,-5.314955],[13.688162,-5.30698],[13.654714,-5.289565],[13.622813,-5.279718],[13.589122,-5.29461],[13.534434,-5.345717],[13.533376,-5.35353],[13.528738,-5.368829],[13.527599,-5.379815],[13.531668,-5.391453],[13.541189,-5.398451],[13.552419,-5.403985],[13.561778,-5.410577],[13.591726,-5.468194],[13.595958,-5.482599],[13.612234,-5.503839],[13.617198,-5.515476],[13.60613,-5.52044],[13.593923,-5.52101],[13.584483,-5.522475],[13.568614,-5.527276],[13.547862,-5.536554],[13.547781,-5.543796],[13.556163,-5.552097],[13.573253,-5.587905],[13.582286,-5.643406],[13.579845,-5.673517],[13.568858,-5.69435],[13.531016,-5.729018],[13.514171,-5.748386],[13.501882,-5.766778],[13.487722,-5.782647],[13.465587,-5.794285],[13.424734,-5.803725],[13.418875,-5.81349],[13.417735,-5.838881],[13.413748,-5.845636],[13.403819,-5.851007],[13.391531,-5.854913],[13.379893,-5.856296],[13.373302,-5.860772],[13.353038,-5.882501],[13.342052,-5.890476],[13.310476,-5.873956],[13.268809,-5.863458],[13.184337,-5.856296]]]}},{"type":"Feature","properties":{"dissolve":"70Lake Centerline","scalerank":3.0,"featurecla":"Lake Centerline","name":"Zambezi","name_alt":null,"rivernum":70,"note":null,"min_zoom":3.0,"name_en":"Zambezi","min_label":4.0},"bbox":[27.020763,-17.958429,32.708425,-15.552097],"geometry":{"type":"MultiLineString","coordinates":[[[32.708425,-15.579115],[32.70753,-15.580011],[32.702159,-15.582533],[32.691335,-15.584324],[32.678315,-15.58172],[32.662608,-15.570733],[32.646658,-15.556655],[32.62794,-15.552097],[32.608653,-15.552179],[32.589447,-15.553237],[32.55714,-15.557061],[32.54005,-15.557061],[32.524913,-15.560724],[32.502208,-15.571954],[32.46282,-15.568211],[32.426524,-15.560724],[32.36614,-15.595554],[32.317475,-15.605401],[32.271007,-15.610528],[32.231863,-15.624037],[32.140147,-15.645196],[32.103282,-15.675226],[32.043224,-15.677423],[31.979015,-15.658543],[31.927745,-15.648858],[31.884044,-15.629246],[31.82724,-15.632745],[31.768809,-15.659031],[31.718028,-15.667494],[31.673269,-15.677911],[31.63974,-15.679864],[31.610769,-15.662042],[31.582612,-15.648858],[31.545909,-15.639581],[31.504405,-15.637709],[31.463308,-15.6478],[31.420014,-15.647638],[31.387218,-15.64129],[31.36671,-15.645196],[31.343516,-15.6478],[31.326915,-15.655125],[31.313487,-15.668145],[31.293468,-15.677423],[31.274913,-15.68491],[31.253673,-15.69614],[31.225027,-15.704767],[31.202729,-15.709649],[31.179617,-15.720066],[31.154389,-15.724623],[31.123627,-15.721856],[31.094737,-15.717136],[31.067556,-15.706231],[31.041433,-15.69728],[30.900401,-15.662937],[30.847748,-15.646173],[30.830333,-15.641453],[30.796397,-15.642022]],[[27.020763,-17.958429],[27.047862,-17.944187],[27.077729,-17.916925],[27.115001,-17.882175],[27.148448,-17.842299],[27.146007,-17.81878],[27.144786,-17.793959],[27.146414,-17.783868],[27.156668,-17.76922],[27.421641,-17.504734],[27.523855,-17.415053],[27.576915,-17.363132],[27.603933,-17.312677],[27.624278,-17.23325],[27.640717,-17.198419],[27.776785,-17.001153],[27.816417,-16.959487],[27.867931,-16.929539],[28.113373,-16.827488],[28.212006,-16.748468],[28.279552,-16.706476],[28.64267,-16.568699],[28.690359,-16.560073],[28.718272,-16.560235],[28.732432,-16.558038],[28.740815,-16.550632],[28.760509,-16.532159],[28.760671,-16.531915]]]}},{"type":"Feature","properties":{"dissolve":"70River","scalerank":3.0,"featurecla":"River","name":"Zambezi","name_alt":null,"rivernum":70,"note":null,"min_zoom":3.0,"name_en":"Zambezi","min_label":4.0},"bbox":[22.521739,-18.80755,36.470144,-11.084893],"geometry":{"type":"MultiLineString","coordinates":[[[24.265554,-11.379246],[24.300304,-11.353692],[24.329519,-11.32407],[24.347341,-11.287774],[24.348155,-11.242608],[24.329519,-11.181085],[24.322927,-11.133722],[24.311778,-11.110365],[24.294607,-11.092218],[24.27239,-11.084893],[24.262625,-11.087579],[24.231456,-11.105401],[24.130626,-11.125014],[24.022227,-11.125909],[23.997488,-11.125665],[23.982432,-11.127455],[23.971121,-11.135431],[23.931651,-11.1867],[23.913341,-11.201593],[23.867686,-11.2138],[23.848155,-11.228448],[23.796153,-11.285984],[23.780528,-11.298028],[23.754405,-11.308445],[23.742605,-11.320164],[23.723643,-11.345066],[23.693126,-11.375177],[23.659841,-11.401056],[23.62086,-11.421319],[23.553396,-11.440362],[23.514415,-11.457533],[23.501475,-11.461114],[23.480968,-11.463881],[23.434093,-11.479832],[23.415782,-11.489109],[23.398448,-11.50213],[23.375743,-11.52394],[23.355968,-11.547865],[23.340099,-11.587254],[23.322683,-11.604343],[23.302013,-11.617852],[23.285411,-11.626153],[23.203624,-11.636407],[23.195567,-11.645522],[23.052013,-11.758803],[22.990733,-11.790704],[22.909679,-11.850763],[22.874685,-11.865737],[22.840343,-11.872573],[22.81072,-11.884698],[22.785655,-11.891046],[22.771495,-11.902765],[22.750418,-11.927911],[22.747325,-11.929864],[22.740164,-11.931573],[22.736746,-11.934015],[22.734793,-11.937433],[22.732432,-11.944268],[22.726248,-11.954115],[22.717784,-11.971694],[22.716319,-11.979018],[22.715017,-12.002618],[22.69337,-12.104425],[22.681326,-12.135105],[22.664724,-12.159845],[22.579519,-12.230483],[22.557058,-12.258233],[22.52532,-12.334324],[22.521739,-12.35825],[22.528494,-12.376886],[22.539073,-12.392755],[22.549246,-12.416518],[22.556814,-12.441583],[22.559337,-12.461602],[22.555186,-12.482761],[22.541759,-12.52394],[22.538829,-12.547703],[22.540294,-12.610365],[22.565359,-12.700128],[22.576101,-12.718927],[22.624034,-12.770359],[22.634288,-12.784356],[22.646007,-12.823663],[22.654959,-12.839532],[22.671886,-12.84588],[22.67213,-12.85825],[22.702647,-12.928399],[22.698741,-13.010268],[22.692638,-13.02394],[22.675792,-13.039727],[22.682302,-13.075046],[22.699962,-13.112237],[22.716319,-13.133803],[22.737966,-13.11948],[22.750743,-13.126153],[22.771007,-13.161147],[22.779714,-13.166436],[22.812511,-13.174819],[22.835623,-13.186944],[22.846121,-13.194757],[22.857188,-13.205499],[22.883311,-13.237237],[22.899669,-13.25099],[22.932628,-13.262546],[22.946218,-13.276381],[22.957205,-13.292413],[22.963878,-13.30519],[22.962657,-13.308933],[22.962087,-13.312351],[22.96046,-13.315606],[22.956472,-13.31878],[22.970714,-13.322931],[22.982188,-13.322768],[22.993663,-13.325046],[23.03419,-13.358738],[23.042654,-13.371596],[23.048595,-13.404311],[23.062022,-13.433608],[23.066335,-13.449151],[23.069998,-13.481622],[23.073416,-13.494806],[23.080577,-13.510593],[23.110118,-13.553237],[23.114187,-13.568699],[23.121267,-13.619968],[23.124766,-13.630385],[23.128591,-13.635756],[23.133556,-13.650567],[23.138113,-13.657729],[23.144705,-13.662774],[23.160818,-13.669854],[23.168142,-13.675144],[23.176687,-13.684259],[23.179942,-13.691908],[23.177419,-13.701593],[23.168142,-13.715997],[23.182628,-13.724786],[23.216807,-13.735691],[23.233897,-13.746759],[23.239024,-13.757013],[23.232432,-13.764337],[23.222423,-13.771498],[23.217214,-13.780938],[23.216238,-13.802667],[23.214041,-13.81349],[23.197439,-13.858901],[23.196056,-13.867527],[23.200938,-13.878106],[23.219249,-13.90073],[23.223399,-13.911554],[23.222911,-13.950209],[23.238699,-14.034519],[23.236827,-14.057794],[23.226817,-14.076104],[23.205089,-14.100274],[23.19573,-14.113946],[23.18922,-14.126886],[23.182791,-14.16253],[23.18336,-14.208185],[23.190603,-14.254327],[23.203624,-14.291436],[23.223399,-14.331882],[23.228526,-14.351739],[23.230235,-14.377781],[23.222667,-14.394545],[23.175548,-14.429213],[23.167166,-14.440769],[23.164317,-14.446954],[23.161876,-14.456476],[23.161632,-14.467299],[23.162771,-14.479913],[23.162608,-14.491713],[23.158458,-14.500909],[23.141612,-14.520522],[23.108653,-14.579441],[23.072195,-14.626886],[23.066335,-14.637709],[23.069347,-14.677097],[23.0678,-14.693048],[23.0595,-14.709812],[23.041189,-14.734552],[23.034679,-14.750909],[23.032237,-14.774916],[23.029063,-14.784601],[23.014903,-14.803399],[23.011729,-14.815851],[23.019542,-14.848321],[23.018565,-14.860528],[23.010671,-14.870782],[22.982921,-14.890558],[22.97698,-14.898126],[22.973888,-14.920424],[22.959727,-14.953464],[22.956472,-14.967136],[22.954275,-14.98797],[22.944265,-15.019464],[22.942882,-15.038751],[22.944021,-15.044285],[22.948416,-15.04754],[22.949636,-15.052423],[22.950125,-15.071222],[22.949636,-15.072931],[22.953054,-15.089369],[22.956472,-15.097019],[22.963878,-15.107599],[22.95338,-15.11948],[22.944347,-15.134698],[22.938243,-15.151056],[22.936046,-15.165948],[22.933767,-15.172296],[22.929861,-15.179132],[22.928152,-15.185968],[22.938487,-15.200698],[22.937755,-15.208673],[22.935313,-15.216648],[22.936046,-15.223647],[22.943533,-15.229913],[22.954845,-15.235854],[22.965099,-15.243178],[22.969493,-15.254083],[22.973155,-15.26808],[22.990977,-15.292169],[22.998057,-15.306166],[22.989431,-15.306329],[22.969493,-15.313002],[22.977224,-15.321303],[22.989757,-15.339207],[22.998057,-15.347182],[23.008311,-15.353041],[23.029552,-15.361505],[23.039073,-15.36769],[23.04005,-15.371921],[23.038097,-15.384617],[23.039073,-15.388849],[23.052013,-15.395033],[23.063975,-15.411472],[23.076915,-15.425714],[23.085948,-15.431492],[23.095958,-15.434503],[23.111339,-15.435968],[23.119151,-15.441257],[23.119314,-15.452976],[23.114187,-15.47381],[23.114919,-15.499933],[23.118093,-15.51808],[23.134695,-15.559503],[23.121349,-15.564955],[23.125418,-15.576023],[23.135671,-15.59002],[23.141531,-15.604425],[23.134451,-15.612807],[23.121023,-15.620294],[23.112559,-15.631036],[23.121023,-15.648858],[23.090831,-15.672052],[23.08546,-15.686863],[23.108653,-15.69728],[23.111501,-15.67962],[23.120616,-15.692397],[23.130138,-15.718764],[23.134695,-15.741062],[23.141612,-15.757826],[23.155447,-15.777683],[23.165701,-15.798679],[23.161876,-15.819513],[23.185313,-15.834893],[23.207449,-15.859226],[23.223806,-15.887709],[23.230235,-15.915216],[23.22877,-15.92254],[23.223399,-15.937351],[23.223399,-15.943048],[23.227794,-15.950372],[23.239919,-15.96323],[23.243907,-15.971043],[23.245372,-15.982354],[23.243093,-15.989923],[23.230235,-16.011407],[23.239268,-16.015151],[23.241222,-16.021173],[23.24114,-16.029311],[23.243907,-16.039239],[23.264415,-16.070001],[23.267589,-16.079441],[23.282237,-16.08823],[23.285411,-16.097589],[23.275808,-16.163995],[23.276134,-16.303237],[23.278005,-16.313002],[23.287852,-16.328139],[23.299083,-16.338311],[23.308279,-16.352065],[23.314871,-16.3895],[23.321788,-16.394464],[23.331798,-16.395685],[23.343761,-16.395522],[23.354503,-16.40073],[23.415212,-16.471205],[23.487966,-16.588393],[23.500255,-16.602065],[23.535818,-16.616713],[23.553152,-16.636733],[23.567882,-16.657892],[23.580333,-16.669854],[23.590017,-16.670912],[23.611827,-16.668308],[23.621267,-16.669854],[23.631358,-16.679539],[23.648855,-16.706476],[23.65919,-16.712091],[23.679454,-16.718194],[23.695079,-16.73211],[23.716807,-16.758722],[23.770763,-16.792413],[23.778982,-16.803643],[23.787771,-16.819187],[23.862559,-16.880873],[23.905935,-16.933445],[23.922374,-16.945001],[23.95753,-16.9603],[23.970714,-16.971043],[23.982839,-17.000421],[23.992117,-17.013849],[24.008311,-17.019382],[24.022716,-17.02752],[24.03533,-17.046808],[24.097911,-17.200128],[24.111339,-17.21795],[24.118419,-17.22503],[24.148855,-17.265802],[24.160818,-17.356866],[24.18629,-17.396661],[24.197276,-17.409112],[24.215831,-17.422377],[24.229747,-17.435479],[24.237722,-17.452488],[24.238292,-17.478041],[24.256847,-17.480808],[24.309825,-17.482436],[24.32073,-17.488621],[24.328868,-17.48504],[24.370616,-17.473565],[24.388438,-17.471205],[24.406505,-17.474542],[24.448741,-17.489109],[24.478689,-17.494317],[24.497732,-17.503351],[24.523123,-17.507664],[24.531179,-17.51336],[24.537283,-17.520359],[24.546072,-17.526381],[24.561941,-17.532078],[24.570567,-17.533217],[24.580251,-17.532647],[24.590831,-17.528334],[24.605968,-17.515069],[24.616954,-17.509129],[24.622325,-17.502293],[24.629161,-17.495457],[24.638845,-17.492364],[24.683849,-17.492364],[24.769216,-17.505304],[24.774425,-17.507501],[24.779552,-17.51214],[24.786388,-17.516941],[24.796886,-17.518976],[24.828868,-17.517755],[24.897716,-17.530938],[24.924408,-17.542901],[24.937104,-17.560561],[24.95753,-17.551609],[24.97047,-17.560561],[24.982026,-17.576511],[24.997976,-17.587905],[25.007335,-17.588393],[25.026296,-17.582696],[25.036388,-17.581069],[25.039968,-17.584405],[25.033295,-17.601414],[25.033295,-17.608331],[25.03948,-17.616062],[25.044851,-17.619806],[25.052013,-17.62127],[25.063731,-17.621433],[25.066498,-17.625177],[25.084727,-17.640802],[25.087901,-17.642511],[25.096283,-17.672052],[25.098155,-17.67669],[25.107351,-17.678725],[25.114513,-17.684096],[25.119558,-17.690932],[25.122081,-17.697768],[25.13087,-17.686375],[25.13795,-17.685968],[25.152843,-17.70086],[25.155772,-17.706476],[25.154796,-17.719252],[25.156261,-17.72503],[25.160655,-17.729343],[25.171886,-17.734877],[25.177257,-17.738702],[25.190196,-17.755304],[25.197683,-17.758315],[25.214447,-17.75921],[25.228445,-17.762384],[25.241954,-17.770196],[25.252859,-17.781427],[25.259288,-17.793959],[25.266124,-17.800795],[25.284923,-17.809259],[25.31544,-17.832045],[25.334972,-17.84116],[25.344737,-17.842462],[25.375987,-17.84116],[25.409109,-17.85296],[25.419688,-17.854832],[25.495128,-17.854832],[25.500092,-17.855971],[25.509532,-17.861017],[25.51588,-17.862237],[25.521576,-17.86004],[25.530365,-17.850763],[25.536388,-17.848565],[25.603526,-17.836114],[25.656505,-17.813897],[25.680756,-17.811375],[25.693777,-17.819268],[25.705984,-17.829767],[25.743337,-17.839288],[25.765391,-17.849623],[25.785574,-17.862156],[25.794363,-17.872491],[25.803966,-17.888035],[25.849213,-17.906589],[25.86321,-17.923761],[25.847097,-17.929213],[25.845714,-17.943536],[25.853038,-17.959893],[25.86321,-17.971531],[25.924083,-17.998875],[25.966563,-18.000421],[25.978038,-17.998875],[26.033214,-17.971531],[26.04005,-17.978367],[26.046153,-17.966241],[26.062022,-17.962823],[26.080658,-17.962254],[26.094656,-17.958429],[26.095632,-17.954522],[26.093679,-17.941827],[26.094656,-17.937921],[26.100597,-17.935724],[26.118175,-17.931492],[26.134939,-17.922377],[26.15797,-17.918308],[26.167003,-17.913507],[26.202566,-17.887058],[26.211355,-17.882745],[26.220714,-17.886163],[26.227794,-17.894464],[26.233409,-17.903823],[26.23878,-17.910089],[26.247651,-17.913263],[26.293875,-17.91839],[26.303233,-17.922703],[26.311453,-17.928155],[26.3178,-17.934259],[26.325125,-17.935968],[26.362234,-17.930597],[26.40797,-17.938897],[26.484955,-17.979181],[26.526541,-17.992039],[26.552989,-17.996433],[26.569835,-18.002781],[26.582937,-18.013116],[26.598399,-18.029799],[26.612234,-18.04103],[26.628429,-18.049168],[26.685151,-18.066746],[26.699636,-18.069187],[26.711436,-18.065606],[26.740164,-18.04046],[26.753184,-18.032892],[26.769135,-18.028985],[26.793549,-18.026218],[26.887706,-17.984389],[26.911632,-17.992039],[26.948253,-17.968764],[26.958751,-17.964695],[27.00587,-17.962579],[27.020763,-17.958429]],[[32.70753,-15.580011],[32.72047,-15.569024],[32.734793,-15.559503],[32.74464,-15.554539],[32.749034,-15.553155],[32.753347,-15.553643],[32.787852,-15.55226],[32.796886,-15.553237],[32.806082,-15.556329],[32.816905,-15.561375],[32.827159,-15.564793],[32.834402,-15.563328],[32.84962,-15.556166],[32.865977,-15.560479],[32.881928,-15.568699],[32.896251,-15.573175],[32.968761,-15.573175],[32.997651,-15.587742],[33.01295,-15.61419],[33.024099,-15.644952],[33.040131,-15.672784],[33.08839,-15.714044],[33.098237,-15.727065],[33.110444,-15.757501],[33.11907,-15.771173],[33.16741,-15.806573],[33.183849,-15.810886],[33.223399,-15.815362],[33.238536,-15.822931],[33.298757,-15.895359],[33.349132,-15.935724],[33.389089,-15.983819],[33.413503,-16.001804],[33.44394,-16.015476],[33.456554,-16.0263],[33.461681,-16.042657],[33.464854,-16.062921],[33.473237,-16.075046],[33.484467,-16.085463],[33.496349,-16.100763],[33.50351,-16.116388],[33.505951,-16.126153],[33.510509,-16.133722],[33.523692,-16.142267],[33.540701,-16.147393],[33.574148,-16.150811],[33.588634,-16.159356],[33.784434,-16.387872],[33.80421,-16.402358],[33.82252,-16.422784],[33.851085,-16.466811],[33.885183,-16.507501],[33.915538,-16.554539],[33.934581,-16.570001],[33.959727,-16.582533],[33.97169,-16.586114],[33.989268,-16.587335],[34.000987,-16.592462],[34.00587,-16.604425],[34.009532,-16.618097],[34.017182,-16.62892],[34.033376,-16.632664],[34.06894,-16.623956],[34.085053,-16.625502],[34.095632,-16.629246],[34.117442,-16.633315],[34.12794,-16.636651],[34.135834,-16.640964],[34.186534,-16.682143],[34.202403,-16.692397],[34.220225,-16.698907],[34.28712,-16.702488],[34.353526,-16.714532],[34.407725,-16.731296],[34.671153,-16.869968],[34.747081,-16.890639],[34.770437,-16.901788],[34.860606,-16.974786],[34.86907,-16.984796],[34.883311,-17.015069],[34.907807,-17.114679],[34.947846,-17.17962],[34.967052,-17.221368],[34.978526,-17.259698],[34.980561,-17.279718],[34.985932,-17.280938],[34.990001,-17.290053],[35.006277,-17.315606],[35.009858,-17.329522],[35.011974,-17.334405],[35.02239,-17.348077],[35.051524,-17.417332],[35.060313,-17.459893],[35.064708,-17.46795],[35.080333,-17.484389],[35.08546,-17.49212],[35.098399,-17.527765],[35.099539,-17.53338],[35.099376,-17.55226],[35.100678,-17.558526],[35.105398,-17.56756],[35.118663,-17.584405],[35.134695,-17.600763],[35.165945,-17.621515],[35.191824,-17.64422],[35.201264,-17.64837],[35.208507,-17.659112],[35.221283,-17.667983],[35.285655,-17.699395],[35.308197,-17.716811],[35.332449,-17.731378],[35.343354,-17.740411],[35.376557,-17.780125],[35.390066,-17.787449],[35.395925,-17.797052],[35.413097,-17.811537],[35.417572,-17.819268],[35.422944,-17.820489],[35.428803,-17.836847],[35.435151,-17.872491],[35.440196,-17.889011],[35.44866,-17.899835],[35.485281,-17.919122],[35.497569,-17.92962],[35.50587,-17.940932],[35.517833,-17.968113],[35.525971,-17.979913],[35.537201,-17.986749],[35.549897,-17.992039],[35.562511,-17.9992],[35.593272,-18.028253],[35.606619,-18.033624],[35.613536,-18.033624]],[[28.760509,-16.532159],[28.768647,-16.515069],[28.80836,-16.486179],[28.822032,-16.470636],[28.828624,-16.434503],[28.83253,-16.426283],[28.856863,-16.388116],[28.856537,-16.365411],[28.839936,-16.323582],[28.836355,-16.306166],[28.839854,-16.284682],[28.863536,-16.231134],[28.84669,-16.202569],[28.85198,-16.162774],[28.865001,-16.121026],[28.870372,-16.087091],[28.867931,-16.082045],[28.863292,-16.076511],[28.858816,-16.069513],[28.856863,-16.060479],[28.859793,-16.04933],[28.873546,-16.028823],[28.876557,-16.021905],[28.898448,-15.995294],[28.931895,-15.963556],[28.950776,-15.955092],[28.97226,-15.951349],[29.017507,-15.950535],[29.041921,-15.946222],[29.054454,-15.934259],[29.075857,-15.895359],[29.085541,-15.884454],[29.101654,-15.870945],[29.121104,-15.859226],[29.141368,-15.854343],[29.150483,-15.848647],[29.185802,-15.812677],[29.406505,-15.714207],[29.421641,-15.71087],[29.507904,-15.703546],[29.525808,-15.692804],[29.562999,-15.662042],[29.586681,-15.655694],[29.608165,-15.65838],[29.627533,-15.663507],[29.64796,-15.666436],[29.672374,-15.6631],[29.729584,-15.644545],[29.772878,-15.638035],[29.813731,-15.619561],[29.836925,-15.61476],[29.881358,-15.618829],[29.967052,-15.641453],[30.010183,-15.646173],[30.049734,-15.640069],[30.08961,-15.629327],[30.129487,-15.623549],[30.169444,-15.632013],[30.195079,-15.64894],[30.206716,-15.653009],[30.222667,-15.649591],[30.230479,-15.644545],[30.245616,-15.632013],[30.254405,-15.628757],[30.279714,-15.632175],[30.327566,-15.652276],[30.356212,-15.6513],[30.409923,-15.630304],[30.430675,-15.628106],[30.469737,-15.630304],[30.48935,-15.635268],[30.504812,-15.64544],[30.516205,-15.65073],[30.529877,-15.648614],[30.543956,-15.643894],[30.556163,-15.642022],[30.561615,-15.644464],[30.572358,-15.65366],[30.576671,-15.655694],[30.584565,-15.654718],[30.596934,-15.649916],[30.604015,-15.648858],[30.61378,-15.645522],[30.628917,-15.631036],[30.638764,-15.627781],[30.651866,-15.626316],[30.67335,-15.620945],[30.686534,-15.621515],[30.766124,-15.639825],[30.796397,-15.642022]],[[35.613536,-18.033624],[35.61964,-18.033624],[35.64503,-18.027358],[35.654552,-18.026218],[35.669037,-18.030206],[35.692882,-18.043634],[35.724539,-18.050795],[35.744721,-18.0617],[35.781261,-18.091241],[35.830984,-18.113295],[35.850678,-18.129327],[35.840017,-18.149591],[35.866303,-18.174981],[35.873546,-18.18377],[35.888927,-18.210626],[35.895437,-18.21795],[35.89267,-18.243585],[35.912852,-18.26336],[35.974132,-18.29282],[36.0171,-18.307957],[36.027599,-18.314874],[36.041108,-18.332045],[36.051768,-18.341974],[36.073171,-18.352065],[36.087657,-18.368504],[36.097667,-18.38714],[36.106375,-18.410333],[36.112234,-18.434747],[36.116954,-18.446791],[36.12379,-18.451837],[36.124278,-18.459975],[36.138113,-18.498061],[36.144542,-18.509942],[36.149099,-18.521336],[36.14796,-18.567315],[36.152761,-18.581231],[36.157807,-18.591974],[36.155365,-18.598972],[36.137706,-18.601495],[36.118663,-18.615248],[36.114757,-18.646417],[36.119558,-18.67905],[36.126964,-18.697686],[36.108002,-18.705987],[36.111908,-18.715997],[36.130382,-18.720229],[36.154796,-18.711358],[36.172293,-18.735854],[36.190196,-18.754327],[36.191661,-18.760431],[36.174083,-18.785984],[36.162364,-18.796808],[36.148692,-18.804376],[36.134369,-18.80755]],[[35.613536,-18.033624],[35.628673,-18.038588],[35.681895,-18.046563],[35.698741,-18.052586],[35.757498,-18.081394]],[[36.072276,-18.348158],[36.103608,-18.358087],[36.185964,-18.369073],[36.202566,-18.386407],[36.20696,-18.402358],[36.217377,-18.416192],[36.257823,-18.450046],[36.298839,-18.499688],[36.300548,-18.494561],[36.304861,-18.485772],[36.305675,-18.479181],[36.317963,-18.486261],[36.374522,-18.506524],[36.377371,-18.512546],[36.375255,-18.51922],[36.375255,-18.524754],[36.384532,-18.527032],[36.424408,-18.527358],[36.432546,-18.530125],[36.435964,-18.536147],[36.436453,-18.550714],[36.439382,-18.557468],[36.445404,-18.560398],[36.461355,-18.559096],[36.470144,-18.561049]]]}},{"type":"Feature","properties":{"dissolve":"98River","scalerank":4.0,"featurecla":"River","name":"Orange","name_alt":null,"rivernum":98,"note":null,"min_zoom":4.0,"name_en":"Orange","min_label":5.0},"bbox":[16.487071,-29.676446,23.627615,-28.026707],"geometry":{"type":"MultiLineString","coordinates":[[[23.627615,-29.07407],[23.617931,-29.076104],[23.615652,-29.083836],[23.621267,-29.104425],[23.618663,-29.114272],[23.612071,-29.126153],[23.587901,-29.15724],[23.571788,-29.185479],[23.559825,-29.19614],[23.536143,-29.204767],[23.516531,-29.208022],[23.497813,-29.213881],[23.477306,-29.230808],[23.457774,-29.216241],[23.417166,-29.204278],[23.398692,-29.192722],[23.37615,-29.183445],[23.361339,-29.199558],[23.342947,-29.26214],[23.338552,-29.265964],[23.326427,-29.271173],[23.315847,-29.271824],[23.305186,-29.268569],[23.293956,-29.267755],[23.263194,-29.286065],[23.219249,-29.297703],[23.203624,-29.306004],[23.198171,-29.315444],[23.194509,-29.337905],[23.18922,-29.346856],[23.178722,-29.351007],[23.165945,-29.350518],[23.145193,-29.346856],[23.134044,-29.348077],[23.104503,-29.354343],[23.098806,-29.360284],[23.103038,-29.373386],[23.114187,-29.395359],[23.104177,-29.408705],[23.084239,-29.417657],[23.06129,-29.41961],[23.020437,-29.402683],[23.011648,-29.418878],[23.010671,-29.442722],[23.01238,-29.461358],[23.013682,-29.464207],[23.018565,-29.470392],[23.0053,-29.490574],[22.996349,-29.514011],[22.982188,-29.525079],[22.953054,-29.508233],[22.933116,-29.505385],[22.921153,-29.529799],[22.910574,-29.559747],[22.89503,-29.573419],[22.881765,-29.561537],[22.862559,-29.537042],[22.846609,-29.524916],[22.845714,-29.540867],[22.854666,-29.557061],[22.86671,-29.572768],[22.874685,-29.587091],[22.875906,-29.599623],[22.873464,-29.613295],[22.868093,-29.627455],[22.860281,-29.642267],[22.86907,-29.657403],[22.854177,-29.667983],[22.8296,-29.67433],[22.809093,-29.676446],[22.793386,-29.672703],[22.747325,-29.652358],[22.730479,-29.642267],[22.715505,-29.62892],[22.704845,-29.614272],[22.698497,-29.597345],[22.69573,-29.566746],[22.693044,-29.559259],[22.687511,-29.554539],[22.678722,-29.552911],[22.663829,-29.552179],[22.659679,-29.54933],[22.658946,-29.543308],[22.654959,-29.532403],[22.615733,-29.461602],[22.603282,-29.450535],[22.598074,-29.447198],[22.592703,-29.439955],[22.585867,-29.432631],[22.576101,-29.429376],[22.562755,-29.431004],[22.543875,-29.4367],[22.531993,-29.436212],[22.516124,-29.427097],[22.48406,-29.394952],[22.473643,-29.387872],[22.452159,-29.384617],[22.440684,-29.385186],[22.430431,-29.399916],[22.419119,-29.397882],[22.401622,-29.387872],[22.38502,-29.373549],[22.350108,-29.329522],[22.3296,-29.320733],[22.288259,-29.32586],[22.271251,-29.312677],[22.26824,-29.292332],[22.277029,-29.242608],[22.274669,-29.226739],[22.262706,-29.207045],[22.259288,-29.188653],[22.257579,-29.148289],[22.252371,-29.132257],[22.242117,-29.114272],[22.228282,-29.099623],[22.212901,-29.093683],[22.206798,-29.089207],[22.204031,-29.078546],[22.203054,-29.056329],[22.200694,-29.041925],[22.195323,-29.033868],[22.188406,-29.027358],[22.181895,-29.017918],[22.160655,-28.954034],[22.099376,-28.88128],[22.078543,-28.846856],[22.067312,-28.837416],[22.051524,-28.839776],[22.039561,-28.8506],[22.028005,-28.86476],[22.012869,-28.874933],[21.990164,-28.873956],[21.980724,-28.865167],[21.965505,-28.832452],[21.955984,-28.819268],[21.937185,-28.813328],[21.89031,-28.812839],[21.88087,-28.809421],[21.876475,-28.788507],[21.857839,-28.754083],[21.848155,-28.727227],[21.824718,-28.703546],[21.819347,-28.685886],[21.810802,-28.666436],[21.772716,-28.644708],[21.764171,-28.630873],[21.752126,-28.56878],[21.757986,-28.552423],[21.722585,-28.499444],[21.706065,-28.490899],[21.702159,-28.485528],[21.703136,-28.461602],[21.699229,-28.456069],[21.694509,-28.453627],[21.67628,-28.441257],[21.587901,-28.402276],[21.548269,-28.391778],[21.492442,-28.387628],[21.469981,-28.388686],[21.450857,-28.393731],[21.433604,-28.416355],[21.412608,-28.421563],[21.3213,-28.420831],[21.300059,-28.426121],[21.281749,-28.451511],[21.216075,-28.476576],[21.199474,-28.489597],[21.188894,-28.50628],[21.183035,-28.526218],[21.181326,-28.549249],[21.17571,-28.566257],[21.107595,-28.644464],[21.077078,-28.672296],[21.042166,-28.696629],[21.003184,-28.716241],[20.98463,-28.721856],[20.966319,-28.723972],[20.924083,-28.723647],[20.900564,-28.726739],[20.839285,-28.75099],[20.754893,-28.765639],[20.66741,-28.764093],[20.599864,-28.746759],[20.55128,-28.741225],[20.533946,-28.733575],[20.520763,-28.722507],[20.489268,-28.682061],[20.459158,-28.664239],[20.455089,-28.658217],[20.443126,-28.650405],[20.37322,-28.62005],[20.31422,-28.579604],[20.304698,-28.575046],[20.295095,-28.567315],[20.286062,-28.544122],[20.274913,-28.540216],[20.248953,-28.5381],[20.237315,-28.532403],[20.215994,-28.517592],[20.16212,-28.490167],[20.130789,-28.469252],[20.002452,-28.423354],[19.980968,-28.422214],[19.949962,-28.429132],[19.939708,-28.430108],[19.9074,-28.426446],[19.896169,-28.427667],[19.869802,-28.440769],[19.824962,-28.476576],[19.795828,-28.484063],[19.747569,-28.486993],[19.724864,-28.494073],[19.705007,-28.507989],[19.687755,-28.515964],[19.587413,-28.522638],[19.578624,-28.525079],[19.568289,-28.531183],[19.561778,-28.538018],[19.555919,-28.546075],[19.547048,-28.555678],[19.541515,-28.563897],[19.533214,-28.582371],[19.526866,-28.58587],[19.517345,-28.589288],[19.51116,-28.597833],[19.482351,-28.678155],[19.471934,-28.692722],[19.454519,-28.705092],[19.434093,-28.713393],[19.352794,-28.731866],[19.338552,-28.737319],[19.32781,-28.735772],[19.303884,-28.718601],[19.289561,-28.719578],[19.276785,-28.729343],[19.265391,-28.742608],[19.248057,-28.771417],[19.244395,-28.792413],[19.250987,-28.814142],[19.288341,-28.870945],[19.287852,-28.882989],[19.276052,-28.889337],[19.243093,-28.891778],[19.237071,-28.895522],[19.226085,-28.911472],[19.218028,-28.918796],[19.161062,-28.945326],[19.11964,-28.957371],[19.081228,-28.959161],[19.06422,-28.93963],[19.059581,-28.935561],[19.048513,-28.932306],[19.013438,-28.928399],[19.006358,-28.926202],[18.99586,-28.91546],[18.970632,-28.880385],[18.954031,-28.86655],[18.745128,-28.839776],[18.553477,-28.864597],[18.5171,-28.882257],[18.495616,-28.888116],[18.49114,-28.886244],[18.478933,-28.876316],[18.474539,-28.873956],[18.468923,-28.874933],[18.460216,-28.879815],[18.4546,-28.88128],[18.435232,-28.884129],[18.424246,-28.887058],[18.416515,-28.891534],[18.396983,-28.898858],[18.372569,-28.895196],[18.330496,-28.88128],[18.308116,-28.879897],[18.220225,-28.891046],[18.184581,-28.902195],[18.166026,-28.901788],[18.08196,-28.875909],[18.043468,-28.858331],[17.982677,-28.81349],[17.949148,-28.794773],[17.912771,-28.781183],[17.74586,-28.748468],[17.713634,-28.75099],[17.70281,-28.755548],[17.683035,-28.767429],[17.673106,-28.771417],[17.660411,-28.772149],[17.628184,-28.764093],[17.606619,-28.755548],[17.602061,-28.735284],[17.602957,-28.710626],[17.597585,-28.689467],[17.58253,-28.680108],[17.56544,-28.683445],[17.546397,-28.691339],[17.526134,-28.695733],[17.48463,-28.700046],[17.44044,-28.709405],[17.403087,-28.704115],[17.401134,-28.674168],[17.413748,-28.632664],[17.419932,-28.593276],[17.408946,-28.571303],[17.372569,-28.559259],[17.364675,-28.542413],[17.358897,-28.519708],[17.33196,-28.488621],[17.323741,-28.470554],[17.327647,-28.456069],[17.34075,-28.442722],[17.357921,-28.432794],[17.375011,-28.428888],[17.390798,-28.418796],[17.399181,-28.395033],[17.401541,-28.367608],[17.399425,-28.346205],[17.394298,-28.334975],[17.378429,-28.316257],[17.371593,-28.306004],[17.367605,-28.293796],[17.366466,-28.28338],[17.363699,-28.273289],[17.354421,-28.260919],[17.350759,-28.251397],[17.349132,-28.238621],[17.345225,-28.227472],[17.333995,-28.222833],[17.308035,-28.224054],[17.24464,-28.237237],[17.212657,-28.231948],[17.191335,-28.208836],[17.186534,-28.161961],[17.18922,-28.139337],[17.189464,-28.116713],[17.180431,-28.099461],[17.155284,-28.092462],[17.135916,-28.084649],[17.122732,-28.06642],[17.111339,-28.045912],[17.097179,-28.031101],[17.086111,-28.027032],[17.075938,-28.026707],[17.056326,-28.031101],[17.044851,-28.03631],[17.011485,-28.058282],[16.984874,-28.052097],[16.973318,-28.055027],[16.958995,-28.068373],[16.947032,-28.072605],[16.937022,-28.070977],[16.927013,-28.060073],[16.919119,-28.058282],[16.913015,-28.062677],[16.896007,-28.079929],[16.892345,-28.082533],[16.884939,-28.161961],[16.877696,-28.171889],[16.873302,-28.171401],[16.868175,-28.16782],[16.851573,-28.168308],[16.847341,-28.165379],[16.843191,-28.163751],[16.837169,-28.168145],[16.835134,-28.174005],[16.837901,-28.179376],[16.855479,-28.199233],[16.855886,-28.206557],[16.840587,-28.209812],[16.819265,-28.209649],[16.813731,-28.213311],[16.809825,-28.222833],[16.812755,-28.229832],[16.820323,-28.239923],[16.826101,-28.251886],[16.824148,-28.264337],[16.814708,-28.270685],[16.804617,-28.267592],[16.794688,-28.261163],[16.785899,-28.257501],[16.768077,-28.265313],[16.763927,-28.283136],[16.767833,-28.303643],[16.775076,-28.319024],[16.796316,-28.347833],[16.803396,-28.366062],[16.792735,-28.3742],[16.778087,-28.382826],[16.772716,-28.402846],[16.771658,-28.425714],[16.768809,-28.44256],[16.757823,-28.459649],[16.739919,-28.48089],[16.719981,-28.495945],[16.70338,-28.494317],[16.699229,-28.48504],[16.6963,-28.472345],[16.691905,-28.461114],[16.682872,-28.456069],[16.672618,-28.459649],[16.596853,-28.526218],[16.558604,-28.537042],[16.531016,-28.549656],[16.504893,-28.565281],[16.487071,-28.572931]]]}},{"type":"Feature","properties":{"name":"Congo","featurecla":"River","authored":true,"note":"Review correction: downstream outlet extension from the Natural Earth inland endpoint to the supplied heightmap Atlantic coastline; approximate course."},"geometry":{"type":"LineString","coordinates":[[13.184337,-5.856296],[12.9,-5.9],[12.65,-5.97],[12.45,-6.06],[12.1,-6.1]]}}]}
